<?xml version="1.0" encoding="UTF-8" standalone="no" ?>
<gpx xmlns="http://www.topografix.com/GPX/1/1" xmlns:xsi="http://www.w3.org/2001/XMLSchema-instance" xsi:schemaLocation="http://www.topografix.com/GPX/1/1 http://www.topografix.com/GPX/1/1/gpx.xsd" version="1.1" creator="VisuGPX - https://www.visugpx.com">
  <metadata>
    <name>Semi-Marathon des Alpes 2025</name>
    <desc><![CDATA[Le parcours de l’évènement est de 21,100 km pour le Semi- marathon, conformément au règlement international des courses sur route (IAAF et FFA).

Le Semi-Marathon Des Alpes: un parcours en boucle qui partira du Funiculaire pour longer la voie verte direction Villaroger avant de rejoindre le point central de Bourg Saint Maurice.
Puis à travers des chemins arborés de la Tarentaise, les coureurs rejoindront le Village de Seez.
Le retour se fera par la magnifique voie verte qui longe l’Isère sur 12km avant de finir cette course à Bourg st Maurice.
La course emprunte de petites routes de campagne goudronnées, dans un cadre boisé, agréable et verdoyant, ombragé. Le parcours est vallonné avec de petites côtes. 
Cette course est adaptée aux coureurs expérimentés et entraînés.
Tout le monde pourra participer à cette course.

Ravitaillements :

Au km 10 / au km 15 / ainsi qu’à l’arrivée (21).
La zone de ravitaillement sera délimitée au moyen de barrières, tables et/ou marques au sol et panneaux (début et fin de zone). Des points d’eau pourront être ajouté en cas de forte chaleur.]]></desc>
  </metadata>
  <wpt lat="45.61434" lon="6.77456">
    <ele>807.6</ele>
    <name><![CDATA[Arrivée]]></name>
    <type><![CDATA[_]]></type>
  </wpt>
  <wpt lat="45.61394" lon="6.77506">
    <ele>807</ele>
    <name><![CDATA[Départ]]></name>
    <type><![CDATA[_]]></type>
  </wpt>
  <wpt lat="45.61974" lon="6.77075">
    <ele>814.4</ele>
    <name><![CDATA[Rivato 2]]></name>
    <type><![CDATA[drink]]></type>
    <extensions>
      <visugpx:TrackPointExtension xmlns:visugpx="https://www.visugpx.com/editgpx/">
        <visugpx:dec>-174,-172</visugpx:dec>
      </visugpx:TrackPointExtension>
    </extensions>
  </wpt>
  <wpt lat="45.58948" lon="6.7505">
    <ele>751.8</ele>
    <name><![CDATA[Ravito 3]]></name>
    <type><![CDATA[drink]]></type>
    <extensions>
      <visugpx:TrackPointExtension xmlns:visugpx="https://www.visugpx.com/editgpx/">
        <visugpx:dec>-85,-77</visugpx:dec>
      </visugpx:TrackPointExtension>
    </extensions>
  </wpt>
  <wpt lat="45.61442" lon="6.77465">
    <ele>807.3</ele>
    <name><![CDATA[Ravito 4 - Départ + Arrivée]]></name>
    <type><![CDATA[drink]]></type>
    <extensions>
      <visugpx:TrackPointExtension xmlns:visugpx="https://www.visugpx.com/editgpx/">
        <visugpx:dec>163,19</visugpx:dec>
      </visugpx:TrackPointExtension>
    </extensions>
  </wpt>
  <wpt lat="45.61863" lon="6.77548">
    <ele>805.1</ele>
    <name><![CDATA[Bénévole 1]]></name>
    <type><![CDATA[person]]></type>
  </wpt>
  <wpt lat="45.62013" lon="6.78884">
    <ele>811.6</ele>
    <name><![CDATA[Bénévole 2]]></name>
    <type><![CDATA[person]]></type>
  </wpt>
  <wpt lat="45.62018" lon="6.79541">
    <ele>838.7</ele>
    <name><![CDATA[Bénévole 3]]></name>
    <type><![CDATA[person]]></type>
  </wpt>
  <wpt lat="45.61463" lon="6.80985">
    <ele>832.5</ele>
    <name><![CDATA[Bénévole 4]]></name>
    <type><![CDATA[person]]></type>
  </wpt>
  <wpt lat="45.62108" lon="6.80134">
    <ele>886.7</ele>
    <name><![CDATA[Bénévole 5]]></name>
    <type><![CDATA[person]]></type>
  </wpt>
  <wpt lat="45.62532" lon="6.79455">
    <ele>868.2</ele>
    <name><![CDATA[Bénévole 6]]></name>
    <type><![CDATA[person]]></type>
  </wpt>
  <wpt lat="45.62255" lon="6.78536">
    <ele>816.4</ele>
    <name><![CDATA[Police 1]]></name>
    <type><![CDATA[danger]]></type>
  </wpt>
  <wpt lat="45.62019" lon="6.77142">
    <ele>812.9</ele>
    <name><![CDATA[Police 2]]></name>
    <type><![CDATA[danger]]></type>
  </wpt>
  <wpt lat="45.62067" lon="6.7709">
    <ele>814.7</ele>
    <name><![CDATA[Bénévole 10]]></name>
    <type><![CDATA[person]]></type>
  </wpt>
  <wpt lat="45.61556" lon="6.76928">
    <ele>827.6</ele>
    <name><![CDATA[Police 3]]></name>
    <type><![CDATA[danger]]></type>
  </wpt>
  <wpt lat="45.61185" lon="6.77332">
    <ele>807</ele>
    <name><![CDATA[Police 4]]></name>
    <type><![CDATA[danger]]></type>
  </wpt>
  <wpt lat="45.60278" lon="6.76601">
    <ele>783</ele>
    <name><![CDATA[Police 5]]></name>
    <type><![CDATA[danger]]></type>
  </wpt>
  <wpt lat="45.6185" lon="6.76915">
    <ele>820.5</ele>
    <name><![CDATA[Bénévole 11]]></name>
    <type><![CDATA[person]]></type>
  </wpt>
  <wpt lat="45.61694" lon="6.76707">
    <ele>831.6</ele>
    <name><![CDATA[Bénévole 12]]></name>
    <type><![CDATA[person]]></type>
  </wpt>
  <wpt lat="45.61625" lon="6.76854">
    <ele>830</ele>
    <name><![CDATA[Bénévole 13]]></name>
    <type><![CDATA[person]]></type>
  </wpt>
  <wpt lat="45.61411" lon="6.77146">
    <ele>817.9</ele>
    <name><![CDATA[Bénévole 14]]></name>
    <type><![CDATA[person]]></type>
  </wpt>
  <wpt lat="45.59809" lon="6.76167">
    <ele>795.8</ele>
    <name><![CDATA[Bénévole 16]]></name>
    <type><![CDATA[person]]></type>
  </wpt>
  <wpt lat="45.58202" lon="6.7455">
    <ele>743.8</ele>
    <name><![CDATA[Bénévole 18]]></name>
    <type><![CDATA[person]]></type>
  </wpt>
  <wpt lat="45.61367" lon="6.77476">
    <ele>807</ele>
    <name><![CDATA[Bénévole 2ème Tour]]></name>
    <type><![CDATA[person]]></type>
  </wpt>
  <wpt lat="45.58967" lon="6.75087">
    <ele>752.1</ele>
    <name><![CDATA[Secours 1]]></name>
    <type><![CDATA[alarm]]></type>
  </wpt>
  <wpt lat="45.61487" lon="6.77403">
    <ele>808</ele>
    <name><![CDATA[Secours 2]]></name>
    <type><![CDATA[alarm]]></type>
  </wpt>
  <wpt lat="45.62091" lon="6.78226">
    <ele>809.3</ele>
    <name><![CDATA[Secours 3]]></name>
    <type><![CDATA[alarm]]></type>
  </wpt>
  <wpt lat="45.61814" lon="6.80665">
    <ele>876.6</ele>
    <name><![CDATA[Secours 4]]></name>
    <type><![CDATA[alarm]]></type>
  </wpt>
  <wpt lat="45.62231" lon="6.80026">
    <ele>890.8</ele>
    <name><![CDATA[Ravito 1]]></name>
    <type><![CDATA[drink]]></type>
    <extensions>
      <visugpx:TrackPointExtension xmlns:visugpx="https://www.visugpx.com/editgpx/">
        <visugpx:dec>45,-150</visugpx:dec>
      </visugpx:TrackPointExtension>
    </extensions>
  </wpt>
  <wpt lat="45.62648" lon="6.79035">
    <ele>842.3</ele>
    <name><![CDATA[Bénévoles 7]]></name>
    <type><![CDATA[person]]></type>
  </wpt>
  <wpt lat="45.6224" lon="6.78026">
    <ele>810.3</ele>
    <name><![CDATA[Bénévoles 8]]></name>
    <type><![CDATA[person]]></type>
  </wpt>
  <wpt lat="45.61977" lon="6.77369">
    <ele>808</ele>
    <name><![CDATA[Bénévole 9]]></name>
    <type><![CDATA[person]]></type>
  </wpt>
  <wpt lat="45.61308" lon="6.77152">
    <ele>814.3</ele>
    <name><![CDATA[Bénévole 15]]></name>
    <type><![CDATA[person]]></type>
  </wpt>
  <wpt lat="45.59495" lon="6.75601">
    <ele>775</ele>
    <name><![CDATA[Bénévole 17]]></name>
    <type><![CDATA[person]]></type>
  </wpt>
  <trk>
    <name><![CDATA[Semi-Marathon des Alpes 2023]]></name>
    <desc><![CDATA[





























































































































































































































































































































































































































































































































































































































































































































































































































































































































































































































































































































































































































































































































































































































































































































































































]]></desc>
    <extensions>
      <line xmlns="http://www.topografix.com/GPX/gpx_style/0/2">
        <color>ff0000</color>
        <width>4</width>
          <extensions>
            <sens>1</sens>
          </extensions>
      </line>
    </extensions>
    <trkseg>
      <trkpt lat="45.61391" lon="6.77508">
        <ele>807</ele>
      </trkpt>
      <trkpt lat="45.6138" lon="6.7751">
        <ele>806.9</ele>
      </trkpt>
      <trkpt lat="45.61374" lon="6.77514">
        <ele>806.7</ele>
      </trkpt>
      <trkpt lat="45.61373" lon="6.77519">
        <ele>806.6</ele>
      </trkpt>
      <trkpt lat="45.61372" lon="6.77527">
        <ele>806.4</ele>
      </trkpt>
      <trkpt lat="45.61372" lon="6.77532">
        <ele>806.3</ele>
      </trkpt>
      <trkpt lat="45.61373" lon="6.7755">
        <ele>805.8</ele>
      </trkpt>
      <trkpt lat="45.61373" lon="6.77558">
        <ele>805.5</ele>
      </trkpt>
      <trkpt lat="45.61374" lon="6.77563">
        <ele>805.4</ele>
      </trkpt>
      <trkpt lat="45.61375" lon="6.77566">
        <ele>805.3</ele>
      </trkpt>
      <trkpt lat="45.61378" lon="6.77569">
        <ele>805.2</ele>
      </trkpt>
      <trkpt lat="45.61381" lon="6.77572">
        <ele>805.1</ele>
      </trkpt>
      <trkpt lat="45.61385" lon="6.77574">
        <ele>805</ele>
      </trkpt>
      <trkpt lat="45.6139" lon="6.77574">
        <ele>805</ele>
      </trkpt>
      <trkpt lat="45.61569" lon="6.77499">
        <ele>805</ele>
      </trkpt>
      <trkpt lat="45.61571" lon="6.77498">
        <ele>805.1</ele>
      </trkpt>
      <trkpt lat="45.61597" lon="6.77495">
        <ele>805.7</ele>
      </trkpt>
      <trkpt lat="45.61626" lon="6.77496">
        <ele>805.6</ele>
      </trkpt>
      <trkpt lat="45.6164" lon="6.77493">
        <ele>805.2</ele>
      </trkpt>
      <trkpt lat="45.61657" lon="6.77486">
        <ele>805.2</ele>
      </trkpt>
      <trkpt lat="45.61666" lon="6.77482">
        <ele>805.3</ele>
      </trkpt>
      <trkpt lat="45.61685" lon="6.77468">
        <ele>805.4</ele>
      </trkpt>
      <trkpt lat="45.61697" lon="6.77459">
        <ele>805.5</ele>
      </trkpt>
      <trkpt lat="45.61703" lon="6.77457">
        <ele>805.6</ele>
      </trkpt>
      <trkpt lat="45.61721" lon="6.77452">
        <ele>805.7</ele>
      </trkpt>
      <trkpt lat="45.61729" lon="6.77451">
        <ele>805.6</ele>
      </trkpt>
      <trkpt lat="45.61739" lon="6.77448">
        <ele>805.3</ele>
      </trkpt>
      <trkpt lat="45.61749" lon="6.77442">
        <ele>805.1</ele>
      </trkpt>
      <trkpt lat="45.61758" lon="6.77436">
        <ele>805.1</ele>
      </trkpt>
      <trkpt lat="45.61827" lon="6.77377">
        <ele>805.6</ele>
      </trkpt>
      <trkpt lat="45.61831" lon="6.77379">
        <ele>805.4</ele>
      </trkpt>
      <trkpt lat="45.61834" lon="6.77386">
        <ele>805.1</ele>
      </trkpt>
      <trkpt lat="45.61849" lon="6.77442">
        <ele>805</ele>
      </trkpt>
      <trkpt lat="45.61864" lon="6.77491">
        <ele>805.4</ele>
      </trkpt>
      <trkpt lat="45.61875" lon="6.77532">
        <ele>805.5</ele>
      </trkpt>
      <trkpt lat="45.61875" lon="6.77539">
        <ele>805.5</ele>
      </trkpt>
      <trkpt lat="45.61874" lon="6.77546">
        <ele>805.5</ele>
      </trkpt>
      <trkpt lat="45.61871" lon="6.77553">
        <ele>805.4</ele>
      </trkpt>
      <trkpt lat="45.61853" lon="6.77591">
        <ele>805.7</ele>
      </trkpt>
      <trkpt lat="45.61849" lon="6.77599">
        <ele>805.6</ele>
      </trkpt>
      <trkpt lat="45.61846" lon="6.77639">
        <ele>804.9</ele>
      </trkpt>
      <trkpt lat="45.61839" lon="6.77687">
        <ele>804.5</ele>
      </trkpt>
      <trkpt lat="45.61833" lon="6.77725">
        <ele>805.9</ele>
      </trkpt>
      <trkpt lat="45.61823" lon="6.7781">
        <ele>805.2</ele>
      </trkpt>
      <trkpt lat="45.61815" lon="6.77873">
        <ele>805</ele>
      </trkpt>
      <trkpt lat="45.61803" lon="6.77957">
        <ele>805.4</ele>
      </trkpt>
      <trkpt lat="45.61801" lon="6.77969">
        <ele>805.6</ele>
      </trkpt>
      <trkpt lat="45.61796" lon="6.77979">
        <ele>805.5</ele>
      </trkpt>
      <trkpt lat="45.61782" lon="6.77998">
        <ele>805.9</ele>
      </trkpt>
      <trkpt lat="45.6171" lon="6.78052">
        <ele>805.4</ele>
      </trkpt>
      <trkpt lat="45.61702" lon="6.78063">
        <ele>805.5</ele>
      </trkpt>
      <trkpt lat="45.61702" lon="6.78091">
        <ele>806</ele>
      </trkpt>
      <trkpt lat="45.61705" lon="6.78191">
        <ele>805.4</ele>
      </trkpt>
      <trkpt lat="45.61711" lon="6.78244">
        <ele>805.1</ele>
      </trkpt>
      <trkpt lat="45.6173" lon="6.7833">
        <ele>806</ele>
      </trkpt>
      <trkpt lat="45.61733" lon="6.78339">
        <ele>806.1</ele>
      </trkpt>
      <trkpt lat="45.6174" lon="6.78354">
        <ele>806.5</ele>
      </trkpt>
      <trkpt lat="45.61749" lon="6.78364">
        <ele>806.9</ele>
      </trkpt>
      <trkpt lat="45.61767" lon="6.78374">
        <ele>808.5</ele>
      </trkpt>
      <trkpt lat="45.61831" lon="6.78416">
        <ele>809.8</ele>
      </trkpt>
      <trkpt lat="45.61844" lon="6.7843">
        <ele>809.8</ele>
      </trkpt>
      <trkpt lat="45.61856" lon="6.78454">
        <ele>809.9</ele>
      </trkpt>
      <trkpt lat="45.61871" lon="6.78478">
        <ele>809.9</ele>
      </trkpt>
      <trkpt lat="45.61974" lon="6.78524">
        <ele>810.9</ele>
      </trkpt>
      <trkpt lat="45.61989" lon="6.78527">
        <ele>811</ele>
      </trkpt>
      <trkpt lat="45.62055" lon="6.78544">
        <ele>812.5</ele>
      </trkpt>
      <trkpt lat="45.62062" lon="6.78545">
        <ele>812.7</ele>
      </trkpt>
      <trkpt lat="45.62078" lon="6.7856">
        <ele>813</ele>
      </trkpt>
      <trkpt lat="45.62206" lon="6.78581">
        <ele>815.4</ele>
      </trkpt>
      <trkpt lat="45.62219" lon="6.78586">
        <ele>815.9</ele>
      </trkpt>
      <trkpt lat="45.62222" lon="6.78596">
        <ele>816</ele>
      </trkpt>
      <trkpt lat="45.62221" lon="6.78609">
        <ele>816</ele>
      </trkpt>
      <trkpt lat="45.62216" lon="6.78619">
        <ele>816.2</ele>
      </trkpt>
      <trkpt lat="45.62185" lon="6.78706">
        <ele>817.7</ele>
      </trkpt>
      <trkpt lat="45.62156" lon="6.78765">
        <ele>817.3</ele>
      </trkpt>
      <trkpt lat="45.62154" lon="6.78769">
        <ele>817.4</ele>
      </trkpt>
      <trkpt lat="45.62153" lon="6.78785">
        <ele>817.5</ele>
      </trkpt>
      <trkpt lat="45.62131" lon="6.78821">
        <ele>815.9</ele>
      </trkpt>
      <trkpt lat="45.62111" lon="6.78841">
        <ele>816</ele>
      </trkpt>
      <trkpt lat="45.62084" lon="6.78859">
        <ele>815</ele>
      </trkpt>
      <trkpt lat="45.62045" lon="6.78875">
        <ele>813</ele>
      </trkpt>
      <trkpt lat="45.6204" lon="6.78883">
        <ele>812.5</ele>
      </trkpt>
      <trkpt lat="45.62033" lon="6.78908">
        <ele>812.3</ele>
      </trkpt>
      <trkpt lat="45.62037" lon="6.78932">
        <ele>812.7</ele>
      </trkpt>
      <trkpt lat="45.62052" lon="6.78974">
        <ele>813.7</ele>
      </trkpt>
      <trkpt lat="45.62048" lon="6.79011">
        <ele>813.9</ele>
      </trkpt>
      <trkpt lat="45.62083" lon="6.79114">
        <ele>817.1</ele>
      </trkpt>
      <trkpt lat="45.62069" lon="6.79284">
        <ele>825.6</ele>
      </trkpt>
      <trkpt lat="45.62068" lon="6.79294">
        <ele>826.9</ele>
      </trkpt>
      <trkpt lat="45.62068" lon="6.79319">
        <ele>829</ele>
      </trkpt>
      <trkpt lat="45.62035" lon="6.79433">
        <ele>834.6</ele>
      </trkpt>
      <trkpt lat="45.62014" lon="6.79494">
        <ele>836.3</ele>
      </trkpt>
      <trkpt lat="45.62005" lon="6.7955">
        <ele>837.5</ele>
      </trkpt>
      <trkpt lat="45.61904" lon="6.79568">
        <ele>827.6</ele>
      </trkpt>
      <trkpt lat="45.61888" lon="6.79567">
        <ele>825.3</ele>
      </trkpt>
      <trkpt lat="45.61879" lon="6.79564">
        <ele>822.3</ele>
      </trkpt>
      <trkpt lat="45.61866" lon="6.79551">
        <ele>817.9</ele>
      </trkpt>
      <trkpt lat="45.61856" lon="6.79536">
        <ele>816.1</ele>
      </trkpt>
      <trkpt lat="45.6185" lon="6.7952">
        <ele>814.1</ele>
      </trkpt>
      <trkpt lat="45.61846" lon="6.79512">
        <ele>812.4</ele>
      </trkpt>
      <trkpt lat="45.61823" lon="6.7951">
        <ele>810.8</ele>
      </trkpt>
      <trkpt lat="45.61813" lon="6.79493">
        <ele>812</ele>
      </trkpt>
      <trkpt lat="45.61808" lon="6.79493">
        <ele>813</ele>
      </trkpt>
      <trkpt lat="45.61807" lon="6.79494">
        <ele>813.3</ele>
      </trkpt>
      <trkpt lat="45.61801" lon="6.79527">
        <ele>818.5</ele>
      </trkpt>
      <trkpt lat="45.61795" lon="6.7955">
        <ele>820.6</ele>
      </trkpt>
      <trkpt lat="45.61788" lon="6.7959">
        <ele>821.7</ele>
      </trkpt>
      <trkpt lat="45.61785" lon="6.79608">
        <ele>821.9</ele>
      </trkpt>
      <trkpt lat="45.61774" lon="6.79651">
        <ele>825.5</ele>
      </trkpt>
      <trkpt lat="45.61769" lon="6.79684">
        <ele>827.6</ele>
      </trkpt>
      <trkpt lat="45.61767" lon="6.79712">
        <ele>829.4</ele>
      </trkpt>
      <trkpt lat="45.61767" lon="6.79732">
        <ele>831.6</ele>
      </trkpt>
      <trkpt lat="45.61772" lon="6.79765">
        <ele>830.9</ele>
      </trkpt>
      <trkpt lat="45.61758" lon="6.79873">
        <ele>829.8</ele>
      </trkpt>
      <trkpt lat="45.61689" lon="6.80002">
        <ele>834.3</ele>
      </trkpt>
      <trkpt lat="45.61674" lon="6.80066">
        <ele>829.6</ele>
      </trkpt>
      <trkpt lat="45.6168" lon="6.80206">
        <ele>827</ele>
      </trkpt>
      <trkpt lat="45.61684" lon="6.80303">
        <ele>824.3</ele>
      </trkpt>
      <trkpt lat="45.61607" lon="6.80477">
        <ele>835.2</ele>
      </trkpt>
      <trkpt lat="45.61601" lon="6.80556">
        <ele>827.8</ele>
      </trkpt>
      <trkpt lat="45.61602" lon="6.80598">
        <ele>828</ele>
      </trkpt>
      <trkpt lat="45.616" lon="6.8064">
        <ele>827.9</ele>
      </trkpt>
      <trkpt lat="45.61588" lon="6.80676">
        <ele>829.2</ele>
      </trkpt>
      <trkpt lat="45.61555" lon="6.80732">
        <ele>827</ele>
      </trkpt>
      <trkpt lat="45.61531" lon="6.80775">
        <ele>828.5</ele>
      </trkpt>
      <trkpt lat="45.61508" lon="6.80833">
        <ele>831.4</ele>
      </trkpt>
      <trkpt lat="45.61469" lon="6.80967">
        <ele>831.6</ele>
      </trkpt>
      <trkpt lat="45.61493" lon="6.80975">
        <ele>831.5</ele>
      </trkpt>
      <trkpt lat="45.615" lon="6.80975">
        <ele>832.4</ele>
      </trkpt>
      <trkpt lat="45.61507" lon="6.80966">
        <ele>834.8</ele>
      </trkpt>
      <trkpt lat="45.61562" lon="6.80824">
        <ele>843.1</ele>
      </trkpt>
      <trkpt lat="45.61592" lon="6.80782">
        <ele>849.5</ele>
      </trkpt>
      <trkpt lat="45.61624" lon="6.80747">
        <ele>854</ele>
      </trkpt>
      <trkpt lat="45.61657" lon="6.80729">
        <ele>859.9</ele>
      </trkpt>
      <trkpt lat="45.61708" lon="6.80678">
        <ele>864.9</ele>
      </trkpt>
      <trkpt lat="45.61739" lon="6.80655">
        <ele>867.8</ele>
      </trkpt>
      <trkpt lat="45.61793" lon="6.80625">
        <ele>873.3</ele>
      </trkpt>
      <trkpt lat="45.61802" lon="6.80575">
        <ele>874.1</ele>
      </trkpt>
      <trkpt lat="45.61809" lon="6.80485">
        <ele>871</ele>
      </trkpt>
      <trkpt lat="45.61818" lon="6.80433">
        <ele>871.5</ele>
      </trkpt>
      <trkpt lat="45.61838" lon="6.80364">
        <ele>872</ele>
      </trkpt>
      <trkpt lat="45.61854" lon="6.80339">
        <ele>874.1</ele>
      </trkpt>
      <trkpt lat="45.61871" lon="6.80317">
        <ele>875.8</ele>
      </trkpt>
      <trkpt lat="45.61886" lon="6.80303">
        <ele>877.3</ele>
      </trkpt>
      <trkpt lat="45.61905" lon="6.80288">
        <ele>878.5</ele>
      </trkpt>
      <trkpt lat="45.61943" lon="6.80273">
        <ele>881.3</ele>
      </trkpt>
      <trkpt lat="45.61962" lon="6.80254">
        <ele>881.3</ele>
      </trkpt>
      <trkpt lat="45.61984" lon="6.80239">
        <ele>882.5</ele>
      </trkpt>
      <trkpt lat="45.62015" lon="6.8021">
        <ele>884.5</ele>
      </trkpt>
      <trkpt lat="45.62055" lon="6.80158">
        <ele>884.7</ele>
      </trkpt>
      <trkpt lat="45.62101" lon="6.80129">
        <ele>886</ele>
      </trkpt>
      <trkpt lat="45.62121" lon="6.80125">
        <ele>887.2</ele>
      </trkpt>
      <trkpt lat="45.62184" lon="6.80063">
        <ele>888.6</ele>
      </trkpt>
      <trkpt lat="45.62201" lon="6.80044">
        <ele>888.9</ele>
      </trkpt>
      <trkpt lat="45.62221" lon="6.80029">
        <ele>889.9</ele>
      </trkpt>
      <trkpt lat="45.62226" lon="6.80006">
        <ele>888.1</ele>
      </trkpt>
      <trkpt lat="45.62234" lon="6.79992">
        <ele>887.7</ele>
      </trkpt>
      <trkpt lat="45.62249" lon="6.79977">
        <ele>888.3</ele>
      </trkpt>
      <trkpt lat="45.62271" lon="6.79966">
        <ele>888.5</ele>
      </trkpt>
      <trkpt lat="45.62277" lon="6.79961">
        <ele>888.6</ele>
      </trkpt>
      <trkpt lat="45.62291" lon="6.79941">
        <ele>888.3</ele>
      </trkpt>
      <trkpt lat="45.62294" lon="6.79931">
        <ele>887.7</ele>
      </trkpt>
      <trkpt lat="45.62306" lon="6.79903">
        <ele>886.1</ele>
      </trkpt>
      <trkpt lat="45.62318" lon="6.79877">
        <ele>885.1</ele>
      </trkpt>
      <trkpt lat="45.62362" lon="6.79791">
        <ele>882</ele>
      </trkpt>
      <trkpt lat="45.624" lon="6.79705">
        <ele>878.5</ele>
      </trkpt>
      <trkpt lat="45.62438" lon="6.79624">
        <ele>876</ele>
      </trkpt>
      <trkpt lat="45.62486" lon="6.7953">
        <ele>871.2</ele>
      </trkpt>
      <trkpt lat="45.62516" lon="6.79466">
        <ele>868.4</ele>
      </trkpt>
      <trkpt lat="45.62517" lon="6.79455">
        <ele>868</ele>
      </trkpt>
      <trkpt lat="45.62518" lon="6.79447">
        <ele>867.7</ele>
      </trkpt>
      <trkpt lat="45.62523" lon="6.79439">
        <ele>867.4</ele>
      </trkpt>
      <trkpt lat="45.62527" lon="6.79435">
        <ele>867.3</ele>
      </trkpt>
      <trkpt lat="45.62535" lon="6.79434">
        <ele>867</ele>
      </trkpt>
      <trkpt lat="45.62561" lon="6.79416">
        <ele>865.1</ele>
      </trkpt>
      <trkpt lat="45.6258" lon="6.79396">
        <ele>863.9</ele>
      </trkpt>
      <trkpt lat="45.62598" lon="6.79373">
        <ele>863.3</ele>
      </trkpt>
      <trkpt lat="45.62605" lon="6.79357">
        <ele>862.4</ele>
      </trkpt>
      <trkpt lat="45.62607" lon="6.79342">
        <ele>861.9</ele>
      </trkpt>
      <trkpt lat="45.62622" lon="6.79287">
        <ele>859.7</ele>
      </trkpt>
      <trkpt lat="45.62633" lon="6.79217">
        <ele>855.6</ele>
      </trkpt>
      <trkpt lat="45.62634" lon="6.7916">
        <ele>850.4</ele>
      </trkpt>
      <trkpt lat="45.62629" lon="6.7912">
        <ele>846.4</ele>
      </trkpt>
      <trkpt lat="45.62631" lon="6.79094">
        <ele>844.7</ele>
      </trkpt>
      <trkpt lat="45.62637" lon="6.79047">
        <ele>841.7</ele>
      </trkpt>
      <trkpt lat="45.62634" lon="6.79036">
        <ele>841.3</ele>
      </trkpt>
      <trkpt lat="45.62621" lon="6.78996">
        <ele>838.7</ele>
      </trkpt>
      <trkpt lat="45.62597" lon="6.78948">
        <ele>836.1</ele>
      </trkpt>
      <trkpt lat="45.62576" lon="6.78912">
        <ele>834.6</ele>
      </trkpt>
      <trkpt lat="45.62576" lon="6.78896">
        <ele>834</ele>
      </trkpt>
      <trkpt lat="45.62586" lon="6.78854">
        <ele>831.7</ele>
      </trkpt>
      <trkpt lat="45.62588" lon="6.78834">
        <ele>831</ele>
      </trkpt>
      <trkpt lat="45.62584" lon="6.78815">
        <ele>830.3</ele>
      </trkpt>
      <trkpt lat="45.62563" lon="6.78759">
        <ele>828.5</ele>
      </trkpt>
      <trkpt lat="45.62548" lon="6.78747">
        <ele>827.7</ele>
      </trkpt>
      <trkpt lat="45.625" lon="6.78723">
        <ele>826</ele>
      </trkpt>
      <trkpt lat="45.62444" lon="6.78684">
        <ele>823</ele>
      </trkpt>
      <trkpt lat="45.62415" lon="6.78661">
        <ele>822.2</ele>
      </trkpt>
      <trkpt lat="45.62376" lon="6.78643">
        <ele>821.1</ele>
      </trkpt>
      <trkpt lat="45.62322" lon="6.78605">
        <ele>818.9</ele>
      </trkpt>
      <trkpt lat="45.62294" lon="6.78595">
        <ele>818.2</ele>
      </trkpt>
      <trkpt lat="45.62234" lon="6.78561">
        <ele>816.4</ele>
      </trkpt>
      <trkpt lat="45.62191" lon="6.78539">
        <ele>814.9</ele>
      </trkpt>
      <trkpt lat="45.62132" lon="6.78534">
        <ele>813.8</ele>
      </trkpt>
      <trkpt lat="45.62067" lon="6.78517">
        <ele>812.3</ele>
      </trkpt>
      <trkpt lat="45.62056" lon="6.78502">
        <ele>812</ele>
      </trkpt>
      <trkpt lat="45.6205" lon="6.7847">
        <ele>811</ele>
      </trkpt>
      <trkpt lat="45.62039" lon="6.78434">
        <ele>810.2</ele>
      </trkpt>
      <trkpt lat="45.62033" lon="6.78411">
        <ele>810</ele>
      </trkpt>
      <trkpt lat="45.6203" lon="6.78362">
        <ele>809.1</ele>
      </trkpt>
      <trkpt lat="45.62009" lon="6.78308">
        <ele>809</ele>
      </trkpt>
      <trkpt lat="45.6201" lon="6.78305">
        <ele>809</ele>
      </trkpt>
      <trkpt lat="45.62013" lon="6.78304">
        <ele>809</ele>
      </trkpt>
      <trkpt lat="45.62019" lon="6.78304">
        <ele>809</ele>
      </trkpt>
      <trkpt lat="45.62024" lon="6.78306">
        <ele>809</ele>
      </trkpt>
      <trkpt lat="45.62036" lon="6.78313">
        <ele>809</ele>
      </trkpt>
      <trkpt lat="45.62045" lon="6.78317">
        <ele>809</ele>
      </trkpt>
      <trkpt lat="45.62052" lon="6.78317">
        <ele>809</ele>
      </trkpt>
      <trkpt lat="45.6206" lon="6.78317">
        <ele>809.1</ele>
      </trkpt>
      <trkpt lat="45.62068" lon="6.78315">
        <ele>809.4</ele>
      </trkpt>
      <trkpt lat="45.62075" lon="6.78311">
        <ele>809.7</ele>
      </trkpt>
      <trkpt lat="45.62081" lon="6.78304">
        <ele>809.9</ele>
      </trkpt>
      <trkpt lat="45.62085" lon="6.78299">
        <ele>810</ele>
      </trkpt>
      <trkpt lat="45.62089" lon="6.78293">
        <ele>810</ele>
      </trkpt>
      <trkpt lat="45.62092" lon="6.78287">
        <ele>810</ele>
      </trkpt>
      <trkpt lat="45.62094" lon="6.78278">
        <ele>810</ele>
      </trkpt>
      <trkpt lat="45.62097" lon="6.78269">
        <ele>809.8</ele>
      </trkpt>
      <trkpt lat="45.62098" lon="6.78256">
        <ele>809.6</ele>
      </trkpt>
      <trkpt lat="45.62097" lon="6.78242">
        <ele>809.5</ele>
      </trkpt>
      <trkpt lat="45.62094" lon="6.78226">
        <ele>809.4</ele>
      </trkpt>
      <trkpt lat="45.62091" lon="6.78217">
        <ele>809.3</ele>
      </trkpt>
      <trkpt lat="45.62086" lon="6.78209">
        <ele>809.1</ele>
      </trkpt>
      <trkpt lat="45.6207" lon="6.78189">
        <ele>808.9</ele>
      </trkpt>
      <trkpt lat="45.62058" lon="6.78168">
        <ele>808.9</ele>
      </trkpt>
      <trkpt lat="45.62033" lon="6.7813">
        <ele>808.2</ele>
      </trkpt>
      <trkpt lat="45.62028" lon="6.78124">
        <ele>808</ele>
      </trkpt>
      <trkpt lat="45.62025" lon="6.78122">
        <ele>807.9</ele>
      </trkpt>
      <trkpt lat="45.62018" lon="6.78117">
        <ele>807.7</ele>
      </trkpt>
      <trkpt lat="45.6201" lon="6.78113">
        <ele>807.4</ele>
      </trkpt>
      <trkpt lat="45.62005" lon="6.7811">
        <ele>807.2</ele>
      </trkpt>
      <trkpt lat="45.61998" lon="6.78105">
        <ele>807.2</ele>
      </trkpt>
      <trkpt lat="45.61994" lon="6.78102">
        <ele>807.2</ele>
      </trkpt>
      <trkpt lat="45.61976" lon="6.78057">
        <ele>807.1</ele>
      </trkpt>
      <trkpt lat="45.61957" lon="6.78033">
        <ele>806.9</ele>
      </trkpt>
      <trkpt lat="45.6193" lon="6.77994">
        <ele>806.5</ele>
      </trkpt>
      <trkpt lat="45.61882" lon="6.77919">
        <ele>806</ele>
      </trkpt>
      <trkpt lat="45.6187" lon="6.77898">
        <ele>806</ele>
      </trkpt>
      <trkpt lat="45.61836" lon="6.77842">
        <ele>806</ele>
      </trkpt>
      <trkpt lat="45.61833" lon="6.77822">
        <ele>806</ele>
      </trkpt>
      <trkpt lat="45.61842" lon="6.77763">
        <ele>806</ele>
      </trkpt>
      <trkpt lat="45.61844" lon="6.77749">
        <ele>806</ele>
      </trkpt>
      <trkpt lat="45.61847" lon="6.77741">
        <ele>806</ele>
      </trkpt>
      <trkpt lat="45.61855" lon="6.7774">
        <ele>806</ele>
      </trkpt>
      <trkpt lat="45.61873" lon="6.77744">
        <ele>805.9</ele>
      </trkpt>
      <trkpt lat="45.61911" lon="6.77757">
        <ele>806</ele>
      </trkpt>
      <trkpt lat="45.61927" lon="6.77766">
        <ele>805.5</ele>
      </trkpt>
      <trkpt lat="45.61933" lon="6.77774">
        <ele>805.3</ele>
      </trkpt>
      <trkpt lat="45.61944" lon="6.77795">
        <ele>805.6</ele>
      </trkpt>
      <trkpt lat="45.61953" lon="6.77812">
        <ele>805.8</ele>
      </trkpt>
      <trkpt lat="45.61963" lon="6.77828">
        <ele>805.9</ele>
      </trkpt>
      <trkpt lat="45.6198" lon="6.77849">
        <ele>805.9</ele>
      </trkpt>
      <trkpt lat="45.61998" lon="6.77865">
        <ele>806</ele>
      </trkpt>
      <trkpt lat="45.62018" lon="6.77881">
        <ele>805.8</ele>
      </trkpt>
      <trkpt lat="45.62045" lon="6.779">
        <ele>806.2</ele>
      </trkpt>
      <trkpt lat="45.62064" lon="6.77911">
        <ele>805.9</ele>
      </trkpt>
      <trkpt lat="45.62095" lon="6.77925">
        <ele>806.3</ele>
      </trkpt>
      <trkpt lat="45.62117" lon="6.77937">
        <ele>806.6</ele>
      </trkpt>
      <trkpt lat="45.62124" lon="6.77944">
        <ele>806.5</ele>
      </trkpt>
      <trkpt lat="45.6213" lon="6.77953">
        <ele>806.5</ele>
      </trkpt>
      <trkpt lat="45.62144" lon="6.77975">
        <ele>807</ele>
      </trkpt>
      <trkpt lat="45.62173" lon="6.7802">
        <ele>808.8</ele>
      </trkpt>
      <trkpt lat="45.62201" lon="6.78065">
        <ele>810.5</ele>
      </trkpt>
      <trkpt lat="45.62205" lon="6.78063">
        <ele>810.2</ele>
      </trkpt>
      <trkpt lat="45.62228" lon="6.78038">
        <ele>810.2</ele>
      </trkpt>
      <trkpt lat="45.6215" lon="6.77903">
        <ele>807.8</ele>
      </trkpt>
      <trkpt lat="45.62104" lon="6.77836">
        <ele>807.1</ele>
      </trkpt>
      <trkpt lat="45.62078" lon="6.77802">
        <ele>806.7</ele>
      </trkpt>
      <trkpt lat="45.62052" lon="6.77779">
        <ele>806.6</ele>
      </trkpt>
      <trkpt lat="45.62017" lon="6.77754">
        <ele>806</ele>
      </trkpt>
      <trkpt lat="45.61983" lon="6.77737">
        <ele>805.7</ele>
      </trkpt>
      <trkpt lat="45.61943" lon="6.7772">
        <ele>806</ele>
      </trkpt>
      <trkpt lat="45.61911" lon="6.77708">
        <ele>805.4</ele>
      </trkpt>
      <trkpt lat="45.61887" lon="6.77689">
        <ele>805</ele>
      </trkpt>
      <trkpt lat="45.61883" lon="6.77681">
        <ele>805.1</ele>
      </trkpt>
      <trkpt lat="45.6188" lon="6.77674">
        <ele>805.2</ele>
      </trkpt>
      <trkpt lat="45.61875" lon="6.77668">
        <ele>805.5</ele>
      </trkpt>
      <trkpt lat="45.61866" lon="6.77662">
        <ele>805.9</ele>
      </trkpt>
      <trkpt lat="45.6186" lon="6.77654">
        <ele>806</ele>
      </trkpt>
      <trkpt lat="45.61853" lon="6.77639">
        <ele>805.4</ele>
      </trkpt>
      <trkpt lat="45.61852" lon="6.77636">
        <ele>805.4</ele>
      </trkpt>
      <trkpt lat="45.61853" lon="6.77631">
        <ele>805.5</ele>
      </trkpt>
      <trkpt lat="45.6188" lon="6.77539">
        <ele>805.7</ele>
      </trkpt>
      <trkpt lat="45.61902" lon="6.7751">
        <ele>806</ele>
      </trkpt>
      <trkpt lat="45.61951" lon="6.7743">
        <ele>806.7</ele>
      </trkpt>
      <trkpt lat="45.61982" lon="6.77373">
        <ele>808</ele>
      </trkpt>
      <trkpt lat="45.62" lon="6.77355">
        <ele>807.8</ele>
      </trkpt>
      <trkpt lat="45.62033" lon="6.773">
        <ele>808.1</ele>
      </trkpt>
      <trkpt lat="45.6205" lon="6.77269">
        <ele>808.6</ele>
      </trkpt>
      <trkpt lat="45.6206" lon="6.77225">
        <ele>810.1</ele>
      </trkpt>
      <trkpt lat="45.62058" lon="6.77198">
        <ele>811.8</ele>
      </trkpt>
      <trkpt lat="45.62055" lon="6.77186">
        <ele>812</ele>
      </trkpt>
      <trkpt lat="45.62049" lon="6.77169">
        <ele>812</ele>
      </trkpt>
      <trkpt lat="45.62045" lon="6.77157">
        <ele>812.3</ele>
      </trkpt>
      <trkpt lat="45.62048" lon="6.77151">
        <ele>812.6</ele>
      </trkpt>
      <trkpt lat="45.62057" lon="6.77143">
        <ele>812.8</ele>
      </trkpt>
      <trkpt lat="45.62058" lon="6.77132">
        <ele>813.2</ele>
      </trkpt>
      <trkpt lat="45.62058" lon="6.77117">
        <ele>813.7</ele>
      </trkpt>
      <trkpt lat="45.62058" lon="6.77108">
        <ele>814.1</ele>
      </trkpt>
      <trkpt lat="45.62049" lon="6.77085">
        <ele>814.7</ele>
      </trkpt>
      <trkpt lat="45.62042" lon="6.77081">
        <ele>814.6</ele>
      </trkpt>
      <trkpt lat="45.62034" lon="6.77082">
        <ele>814.3</ele>
      </trkpt>
      <trkpt lat="45.62019" lon="6.77085">
        <ele>814</ele>
      </trkpt>
      <trkpt lat="45.62005" lon="6.77083">
        <ele>814.1</ele>
      </trkpt>
      <trkpt lat="45.62003" lon="6.7708">
        <ele>814.6</ele>
      </trkpt>
      <trkpt lat="45.61975" lon="6.77055">
        <ele>815.5</ele>
      </trkpt>
      <trkpt lat="45.61957" lon="6.77035">
        <ele>816.5</ele>
      </trkpt>
      <trkpt lat="45.61849" lon="6.76923">
        <ele>820.3</ele>
      </trkpt>
      <trkpt lat="45.61808" lon="6.76863">
        <ele>822.1</ele>
      </trkpt>
      <trkpt lat="45.61786" lon="6.76825">
        <ele>824.8</ele>
      </trkpt>
      <trkpt lat="45.61764" lon="6.76784">
        <ele>826.7</ele>
      </trkpt>
      <trkpt lat="45.61735" lon="6.76748">
        <ele>829.1</ele>
      </trkpt>
      <trkpt lat="45.61706" lon="6.7672">
        <ele>830.8</ele>
      </trkpt>
      <trkpt lat="45.617" lon="6.7672">
        <ele>830.9</ele>
      </trkpt>
      <trkpt lat="45.61668" lon="6.76785">
        <ele>831.9</ele>
      </trkpt>
      <trkpt lat="45.61624" lon="6.76843">
        <ele>830.9</ele>
      </trkpt>
      <trkpt lat="45.61547" lon="6.76918">
        <ele>828.3</ele>
      </trkpt>
      <trkpt lat="45.61518" lon="6.76952">
        <ele>826.5</ele>
      </trkpt>
      <trkpt lat="45.61498" lon="6.76972">
        <ele>825</ele>
      </trkpt>
      <trkpt lat="45.61474" lon="6.77013">
        <ele>823.1</ele>
      </trkpt>
      <trkpt lat="45.61425" lon="6.77102">
        <ele>820</ele>
      </trkpt>
      <trkpt lat="45.61407" lon="6.77137">
        <ele>818.5</ele>
      </trkpt>
      <trkpt lat="45.61401" lon="6.77144">
        <ele>818.3</ele>
      </trkpt>
      <trkpt lat="45.61364" lon="6.77163">
        <ele>817.2</ele>
      </trkpt>
      <trkpt lat="45.61356" lon="6.77164">
        <ele>816.7</ele>
      </trkpt>
      <trkpt lat="45.6131" lon="6.77161">
        <ele>813.8</ele>
      </trkpt>
      <trkpt lat="45.61289" lon="6.77159">
        <ele>812.3</ele>
      </trkpt>
      <trkpt lat="45.6127" lon="6.77168">
        <ele>811.2</ele>
      </trkpt>
      <trkpt lat="45.61261" lon="6.77185">
        <ele>812.7</ele>
      </trkpt>
      <trkpt lat="45.61243" lon="6.77233">
        <ele>809.9</ele>
      </trkpt>
      <trkpt lat="45.61237" lon="6.77251">
        <ele>810.4</ele>
      </trkpt>
      <trkpt lat="45.61233" lon="6.77283">
        <ele>809.3</ele>
      </trkpt>
      <trkpt lat="45.61232" lon="6.77292">
        <ele>808.6</ele>
      </trkpt>
      <trkpt lat="45.61224" lon="6.77306">
        <ele>807.9</ele>
      </trkpt>
      <trkpt lat="45.61214" lon="6.77311">
        <ele>807.8</ele>
      </trkpt>
      <trkpt lat="45.61203" lon="6.77311">
        <ele>807.8</ele>
      </trkpt>
      <trkpt lat="45.61195" lon="6.77314">
        <ele>807.7</ele>
      </trkpt>
      <trkpt lat="45.61187" lon="6.77315">
        <ele>807.5</ele>
      </trkpt>
      <trkpt lat="45.61175" lon="6.77314">
        <ele>807.2</ele>
      </trkpt>
      <trkpt lat="45.61161" lon="6.77296">
        <ele>806.9</ele>
      </trkpt>
      <trkpt lat="45.61109" lon="6.77245">
        <ele>807.9</ele>
      </trkpt>
      <trkpt lat="45.61037" lon="6.77198">
        <ele>808.1</ele>
      </trkpt>
      <trkpt lat="45.60966" lon="6.77166">
        <ele>808</ele>
      </trkpt>
      <trkpt lat="45.60909" lon="6.77146">
        <ele>805.4</ele>
      </trkpt>
      <trkpt lat="45.60873" lon="6.77135">
        <ele>804.6</ele>
      </trkpt>
      <trkpt lat="45.60797" lon="6.77114">
        <ele>803.3</ele>
      </trkpt>
      <trkpt lat="45.60765" lon="6.77095">
        <ele>803.1</ele>
      </trkpt>
      <trkpt lat="45.6074" lon="6.77077">
        <ele>802.6</ele>
      </trkpt>
      <trkpt lat="45.6072" lon="6.77066">
        <ele>802.2</ele>
      </trkpt>
      <trkpt lat="45.60689" lon="6.77053">
        <ele>801.8</ele>
      </trkpt>
      <trkpt lat="45.60651" lon="6.7704">
        <ele>800.4</ele>
      </trkpt>
      <trkpt lat="45.6062" lon="6.77019">
        <ele>798.7</ele>
      </trkpt>
      <trkpt lat="45.60605" lon="6.7699">
        <ele>798</ele>
      </trkpt>
      <trkpt lat="45.60603" lon="6.76942">
        <ele>798.5</ele>
      </trkpt>
      <trkpt lat="45.60609" lon="6.76906">
        <ele>800.2</ele>
      </trkpt>
      <trkpt lat="45.60596" lon="6.76876">
        <ele>800.5</ele>
      </trkpt>
      <trkpt lat="45.60564" lon="6.76824">
        <ele>801.1</ele>
      </trkpt>
      <trkpt lat="45.60509" lon="6.76776">
        <ele>799.8</ele>
      </trkpt>
      <trkpt lat="45.60457" lon="6.76751">
        <ele>797.8</ele>
      </trkpt>
      <trkpt lat="45.60416" lon="6.76744">
        <ele>794.5</ele>
      </trkpt>
      <trkpt lat="45.6041" lon="6.76727">
        <ele>795</ele>
      </trkpt>
      <trkpt lat="45.60404" lon="6.76707">
        <ele>793.9</ele>
      </trkpt>
      <trkpt lat="45.60349" lon="6.76621">
        <ele>789.9</ele>
      </trkpt>
      <trkpt lat="45.60328" lon="6.76578">
        <ele>787.6</ele>
      </trkpt>
      <trkpt lat="45.60316" lon="6.76583">
        <ele>786.8</ele>
      </trkpt>
      <trkpt lat="45.60298" lon="6.76613">
        <ele>784.9</ele>
      </trkpt>
      <trkpt lat="45.60256" lon="6.7669">
        <ele>784.9</ele>
      </trkpt>
      <trkpt lat="45.60227" lon="6.76684">
        <ele>786.2</ele>
      </trkpt>
      <trkpt lat="45.60185" lon="6.76658">
        <ele>786.4</ele>
      </trkpt>
      <trkpt lat="45.60156" lon="6.76635">
        <ele>787.2</ele>
      </trkpt>
      <trkpt lat="45.60154" lon="6.76584">
        <ele>782.5</ele>
      </trkpt>
      <trkpt lat="45.60093" lon="6.76483">
        <ele>778.9</ele>
      </trkpt>
      <trkpt lat="45.60055" lon="6.76412">
        <ele>777</ele>
      </trkpt>
      <trkpt lat="45.60046" lon="6.76406">
        <ele>777</ele>
      </trkpt>
      <trkpt lat="45.60039" lon="6.76389">
        <ele>777</ele>
      </trkpt>
      <trkpt lat="45.59982" lon="6.76321">
        <ele>780.1</ele>
      </trkpt>
      <trkpt lat="45.59963" lon="6.76304">
        <ele>781.7</ele>
      </trkpt>
      <trkpt lat="45.59957" lon="6.76297">
        <ele>782.8</ele>
      </trkpt>
      <trkpt lat="45.59947" lon="6.76292">
        <ele>784.6</ele>
      </trkpt>
      <trkpt lat="45.59937" lon="6.7629">
        <ele>786.2</ele>
      </trkpt>
      <trkpt lat="45.5993" lon="6.7629">
        <ele>786.9</ele>
      </trkpt>
      <trkpt lat="45.59923" lon="6.76295">
        <ele>787.5</ele>
      </trkpt>
      <trkpt lat="45.59918" lon="6.76298">
        <ele>788</ele>
      </trkpt>
      <trkpt lat="45.5991" lon="6.76303">
        <ele>789.3</ele>
      </trkpt>
      <trkpt lat="45.59904" lon="6.76303">
        <ele>790.3</ele>
      </trkpt>
      <trkpt lat="45.59895" lon="6.76287">
        <ele>792.1</ele>
      </trkpt>
      <trkpt lat="45.59888" lon="6.76271">
        <ele>793.3</ele>
      </trkpt>
      <trkpt lat="45.59883" lon="6.76264">
        <ele>793.7</ele>
      </trkpt>
      <trkpt lat="45.59876" lon="6.76262">
        <ele>793.9</ele>
      </trkpt>
      <trkpt lat="45.5987" lon="6.76258">
        <ele>793.8</ele>
      </trkpt>
      <trkpt lat="45.59865" lon="6.76254">
        <ele>793.5</ele>
      </trkpt>
      <trkpt lat="45.59832" lon="6.76207">
        <ele>795.5</ele>
      </trkpt>
      <trkpt lat="45.59836" lon="6.76198">
        <ele>795.1</ele>
      </trkpt>
      <trkpt lat="45.59841" lon="6.76191">
        <ele>794.6</ele>
      </trkpt>
      <trkpt lat="45.5985" lon="6.7619">
        <ele>794.2</ele>
      </trkpt>
      <trkpt lat="45.59866" lon="6.76187">
        <ele>793</ele>
      </trkpt>
      <trkpt lat="45.5987" lon="6.76179">
        <ele>792.3</ele>
      </trkpt>
      <trkpt lat="45.59873" lon="6.76168">
        <ele>792.2</ele>
      </trkpt>
      <trkpt lat="45.59869" lon="6.76157">
        <ele>791.1</ele>
      </trkpt>
      <trkpt lat="45.59857" lon="6.76131">
        <ele>788.9</ele>
      </trkpt>
      <trkpt lat="45.5985" lon="6.76116">
        <ele>788.6</ele>
      </trkpt>
      <trkpt lat="45.59846" lon="6.76092">
        <ele>786.5</ele>
      </trkpt>
      <trkpt lat="45.59846" lon="6.76042">
        <ele>781.6</ele>
      </trkpt>
      <trkpt lat="45.59847" lon="6.76012">
        <ele>779.3</ele>
      </trkpt>
      <trkpt lat="45.59849" lon="6.75986">
        <ele>777.2</ele>
      </trkpt>
      <trkpt lat="45.59842" lon="6.75927">
        <ele>772.9</ele>
      </trkpt>
      <trkpt lat="45.59831" lon="6.75892">
        <ele>771.1</ele>
      </trkpt>
      <trkpt lat="45.59816" lon="6.75874">
        <ele>769.9</ele>
      </trkpt>
      <trkpt lat="45.59804" lon="6.75868">
        <ele>769.6</ele>
      </trkpt>
      <trkpt lat="45.59741" lon="6.75787">
        <ele>766.5</ele>
      </trkpt>
      <trkpt lat="45.59713" lon="6.75763">
        <ele>765.6</ele>
      </trkpt>
      <trkpt lat="45.59669" lon="6.75749">
        <ele>766.8</ele>
      </trkpt>
      <trkpt lat="45.59629" lon="6.75733">
        <ele>771.1</ele>
      </trkpt>
      <trkpt lat="45.59577" lon="6.75656">
        <ele>770.5</ele>
      </trkpt>
      <trkpt lat="45.59551" lon="6.7563">
        <ele>771.9</ele>
      </trkpt>
      <trkpt lat="45.59521" lon="6.75605">
        <ele>773.4</ele>
      </trkpt>
      <trkpt lat="45.59514" lon="6.75593">
        <ele>773.2</ele>
      </trkpt>
      <trkpt lat="45.59498" lon="6.75592">
        <ele>774</ele>
      </trkpt>
      <trkpt lat="45.59488" lon="6.75583">
        <ele>773.4</ele>
      </trkpt>
      <trkpt lat="45.59395" lon="6.75548">
        <ele>767</ele>
      </trkpt>
      <trkpt lat="45.59324" lon="6.75551">
        <ele>767</ele>
      </trkpt>
      <trkpt lat="45.59287" lon="6.75539">
        <ele>767.6</ele>
      </trkpt>
      <trkpt lat="45.59255" lon="6.7551">
        <ele>765.1</ele>
      </trkpt>
      <trkpt lat="45.59238" lon="6.75507">
        <ele>766.2</ele>
      </trkpt>
      <trkpt lat="45.59214" lon="6.7549">
        <ele>765</ele>
      </trkpt>
      <trkpt lat="45.59187" lon="6.75451">
        <ele>759</ele>
      </trkpt>
      <trkpt lat="45.59157" lon="6.75427">
        <ele>759.7</ele>
      </trkpt>
      <trkpt lat="45.59151" lon="6.75414">
        <ele>758.1</ele>
      </trkpt>
      <trkpt lat="45.59134" lon="6.75376">
        <ele>756.8</ele>
      </trkpt>
      <trkpt lat="45.59134" lon="6.7536">
        <ele>756</ele>
      </trkpt>
      <trkpt lat="45.59143" lon="6.75338">
        <ele>755.3</ele>
      </trkpt>
      <trkpt lat="45.59161" lon="6.75286">
        <ele>755.2</ele>
      </trkpt>
      <trkpt lat="45.59174" lon="6.75251">
        <ele>755.3</ele>
      </trkpt>
      <trkpt lat="45.59171" lon="6.75237">
        <ele>755.1</ele>
      </trkpt>
      <trkpt lat="45.59078" lon="6.75174">
        <ele>753.8</ele>
      </trkpt>
      <trkpt lat="45.59033" lon="6.75132">
        <ele>752.8</ele>
      </trkpt>
      <trkpt lat="45.59023" lon="6.75112">
        <ele>752</ele>
      </trkpt>
      <trkpt lat="45.59005" lon="6.75088">
        <ele>752</ele>
      </trkpt>
      <trkpt lat="45.58975" lon="6.75046">
        <ele>751.7</ele>
      </trkpt>
      <trkpt lat="45.58975" lon="6.75042">
        <ele>751.6</ele>
      </trkpt>
      <trkpt lat="45.58975" lon="6.75037">
        <ele>751.4</ele>
      </trkpt>
      <trkpt lat="45.58988" lon="6.74993">
        <ele>751.4</ele>
      </trkpt>
      <trkpt lat="45.58987" lon="6.74982">
        <ele>751.7</ele>
      </trkpt>
      <trkpt lat="45.5898" lon="6.74974">
        <ele>751.5</ele>
      </trkpt>
      <trkpt lat="45.5897" lon="6.74965">
        <ele>751.4</ele>
      </trkpt>
      <trkpt lat="45.58962" lon="6.74958">
        <ele>751.6</ele>
      </trkpt>
      <trkpt lat="45.58954" lon="6.74953">
        <ele>751.8</ele>
      </trkpt>
      <trkpt lat="45.58941" lon="6.74945">
        <ele>751.7</ele>
      </trkpt>
      <trkpt lat="45.58929" lon="6.74935">
        <ele>751.1</ele>
      </trkpt>
      <trkpt lat="45.58919" lon="6.74927">
        <ele>750.7</ele>
      </trkpt>
      <trkpt lat="45.58911" lon="6.74929">
        <ele>750.6</ele>
      </trkpt>
      <trkpt lat="45.58905" lon="6.74931">
        <ele>750.7</ele>
      </trkpt>
      <trkpt lat="45.589" lon="6.74956">
        <ele>750.8</ele>
      </trkpt>
      <trkpt lat="45.5892" lon="6.74992">
        <ele>750.9</ele>
      </trkpt>
      <trkpt lat="45.58942" lon="6.75018">
        <ele>750.7</ele>
      </trkpt>
      <trkpt lat="45.58965" lon="6.75045">
        <ele>751.6</ele>
      </trkpt>
      <trkpt lat="45.58965" lon="6.75048">
        <ele>751.7</ele>
      </trkpt>
      <trkpt lat="45.58964" lon="6.75056">
        <ele>752</ele>
      </trkpt>
      <trkpt lat="45.58961" lon="6.75062">
        <ele>752</ele>
      </trkpt>
      <trkpt lat="45.58927" lon="6.75078">
        <ele>752</ele>
      </trkpt>
      <trkpt lat="45.58909" lon="6.75072">
        <ele>751.9</ele>
      </trkpt>
      <trkpt lat="45.58885" lon="6.75048">
        <ele>751</ele>
      </trkpt>
      <trkpt lat="45.58861" lon="6.75039">
        <ele>751</ele>
      </trkpt>
      <trkpt lat="45.58816" lon="6.75025">
        <ele>751</ele>
      </trkpt>
      <trkpt lat="45.58768" lon="6.74964">
        <ele>750.4</ele>
      </trkpt>
      <trkpt lat="45.58753" lon="6.74959">
        <ele>750</ele>
      </trkpt>
      <trkpt lat="45.58736" lon="6.7496">
        <ele>749.8</ele>
      </trkpt>
      <trkpt lat="45.5872" lon="6.74977">
        <ele>750</ele>
      </trkpt>
      <trkpt lat="45.58697" lon="6.7504">
        <ele>749.5</ele>
      </trkpt>
      <trkpt lat="45.58684" lon="6.75072">
        <ele>750.4</ele>
      </trkpt>
      <trkpt lat="45.58668" lon="6.75103">
        <ele>750.7</ele>
      </trkpt>
      <trkpt lat="45.58657" lon="6.75111">
        <ele>750.7</ele>
      </trkpt>
      <trkpt lat="45.58649" lon="6.75114">
        <ele>750.3</ele>
      </trkpt>
      <trkpt lat="45.5859" lon="6.75072">
        <ele>750.8</ele>
      </trkpt>
      <trkpt lat="45.5857" lon="6.75041">
        <ele>751.2</ele>
      </trkpt>
      <trkpt lat="45.58543" lon="6.75027">
        <ele>752.4</ele>
      </trkpt>
      <trkpt lat="45.58526" lon="6.75013">
        <ele>752.2</ele>
      </trkpt>
      <trkpt lat="45.58516" lon="6.75017">
        <ele>753.9</ele>
      </trkpt>
      <trkpt lat="45.58505" lon="6.75009">
        <ele>754.6</ele>
      </trkpt>
      <trkpt lat="45.58448" lon="6.7493">
        <ele>756.6</ele>
      </trkpt>
      <trkpt lat="45.58424" lon="6.74908">
        <ele>757</ele>
      </trkpt>
      <trkpt lat="45.58395" lon="6.74887">
        <ele>756.3</ele>
      </trkpt>
      <trkpt lat="45.58293" lon="6.74833">
        <ele>754.8</ele>
      </trkpt>
      <trkpt lat="45.58236" lon="6.74799">
        <ele>752.2</ele>
      </trkpt>
      <trkpt lat="45.58208" lon="6.74778">
        <ele>750.6</ele>
      </trkpt>
      <trkpt lat="45.58155" lon="6.74723">
        <ele>750</ele>
      </trkpt>
      <trkpt lat="45.58149" lon="6.74708">
        <ele>748.9</ele>
      </trkpt>
      <trkpt lat="45.58149" lon="6.7469">
        <ele>746.1</ele>
      </trkpt>
      <trkpt lat="45.58151" lon="6.74679">
        <ele>745.5</ele>
      </trkpt>
      <trkpt lat="45.58157" lon="6.7466">
        <ele>744.8</ele>
      </trkpt>
      <trkpt lat="45.58184" lon="6.74607">
        <ele>744.5</ele>
      </trkpt>
      <trkpt lat="45.58202" lon="6.74569">
        <ele>744</ele>
      </trkpt>
      <trkpt lat="45.58204" lon="6.74572">
        <ele>744</ele>
      </trkpt>
      <trkpt lat="45.58212" lon="6.74599">
        <ele>744.2</ele>
      </trkpt>
      <trkpt lat="45.58217" lon="6.74619">
        <ele>744.4</ele>
      </trkpt>
      <trkpt lat="45.58228" lon="6.7465">
        <ele>744.7</ele>
      </trkpt>
      <trkpt lat="45.58239" lon="6.74666">
        <ele>745</ele>
      </trkpt>
      <trkpt lat="45.58308" lon="6.74736">
        <ele>745</ele>
      </trkpt>
      <trkpt lat="45.58344" lon="6.7476">
        <ele>746.2</ele>
      </trkpt>
      <trkpt lat="45.58376" lon="6.74779">
        <ele>746.2</ele>
      </trkpt>
      <trkpt lat="45.5841" lon="6.74783">
        <ele>746</ele>
      </trkpt>
      <trkpt lat="45.58444" lon="6.74794">
        <ele>745.6</ele>
      </trkpt>
      <trkpt lat="45.58493" lon="6.74803">
        <ele>746.8</ele>
      </trkpt>
      <trkpt lat="45.58506" lon="6.74814">
        <ele>747.1</ele>
      </trkpt>
      <trkpt lat="45.58515" lon="6.74831">
        <ele>747.4</ele>
      </trkpt>
      <trkpt lat="45.58524" lon="6.74839">
        <ele>747.3</ele>
      </trkpt>
      <trkpt lat="45.5857" lon="6.74858">
        <ele>747.9</ele>
      </trkpt>
      <trkpt lat="45.58601" lon="6.7489">
        <ele>748</ele>
      </trkpt>
      <trkpt lat="45.5863" lon="6.74896">
        <ele>748.3</ele>
      </trkpt>
      <trkpt lat="45.5866" lon="6.74898">
        <ele>748.3</ele>
      </trkpt>
      <trkpt lat="45.58674" lon="6.74895">
        <ele>748.2</ele>
      </trkpt>
      <trkpt lat="45.587" lon="6.749">
        <ele>748.2</ele>
      </trkpt>
      <trkpt lat="45.58738" lon="6.74899">
        <ele>749</ele>
      </trkpt>
      <trkpt lat="45.58768" lon="6.74912">
        <ele>749</ele>
      </trkpt>
      <trkpt lat="45.58824" lon="6.74911">
        <ele>749</ele>
      </trkpt>
      <trkpt lat="45.58846" lon="6.74908">
        <ele>749.8</ele>
      </trkpt>
      <trkpt lat="45.5887" lon="6.74911">
        <ele>750.8</ele>
      </trkpt>
      <trkpt lat="45.58892" lon="6.74904">
        <ele>750.5</ele>
      </trkpt>
      <trkpt lat="45.58919" lon="6.74913">
        <ele>750.9</ele>
      </trkpt>
      <trkpt lat="45.58937" lon="6.74913">
        <ele>751.4</ele>
      </trkpt>
      <trkpt lat="45.58968" lon="6.74933">
        <ele>751.8</ele>
      </trkpt>
      <trkpt lat="45.58994" lon="6.74948">
        <ele>752.9</ele>
      </trkpt>
      <trkpt lat="45.59041" lon="6.74963">
        <ele>751.8</ele>
      </trkpt>
      <trkpt lat="45.59049" lon="6.74973">
        <ele>752.8</ele>
      </trkpt>
      <trkpt lat="45.59054" lon="6.74983">
        <ele>752.9</ele>
      </trkpt>
      <trkpt lat="45.59064" lon="6.74996">
        <ele>753</ele>
      </trkpt>
      <trkpt lat="45.59076" lon="6.74999">
        <ele>753</ele>
      </trkpt>
      <trkpt lat="45.59123" lon="6.75005">
        <ele>753.2</ele>
      </trkpt>
      <trkpt lat="45.59167" lon="6.75013">
        <ele>753.6</ele>
      </trkpt>
      <trkpt lat="45.59198" lon="6.75046">
        <ele>754.1</ele>
      </trkpt>
      <trkpt lat="45.59237" lon="6.75091">
        <ele>755</ele>
      </trkpt>
      <trkpt lat="45.59268" lon="6.7514">
        <ele>756</ele>
      </trkpt>
      <trkpt lat="45.59274" lon="6.75147">
        <ele>756.3</ele>
      </trkpt>
      <trkpt lat="45.59318" lon="6.75159">
        <ele>756.5</ele>
      </trkpt>
      <trkpt lat="45.59359" lon="6.75182">
        <ele>756.2</ele>
      </trkpt>
      <trkpt lat="45.59376" lon="6.75191">
        <ele>757.2</ele>
      </trkpt>
      <trkpt lat="45.59396" lon="6.75195">
        <ele>757.7</ele>
      </trkpt>
      <trkpt lat="45.59418" lon="6.75212">
        <ele>757.6</ele>
      </trkpt>
      <trkpt lat="45.59448" lon="6.75267">
        <ele>758.5</ele>
      </trkpt>
      <trkpt lat="45.5947" lon="6.75294">
        <ele>758.5</ele>
      </trkpt>
      <trkpt lat="45.59492" lon="6.75313">
        <ele>758.9</ele>
      </trkpt>
      <trkpt lat="45.59515" lon="6.75343">
        <ele>758.7</ele>
      </trkpt>
      <trkpt lat="45.59529" lon="6.75363">
        <ele>759.1</ele>
      </trkpt>
      <trkpt lat="45.59552" lon="6.75384">
        <ele>759.7</ele>
      </trkpt>
      <trkpt lat="45.59567" lon="6.75395">
        <ele>759.7</ele>
      </trkpt>
      <trkpt lat="45.5958" lon="6.75415">
        <ele>760</ele>
      </trkpt>
      <trkpt lat="45.59611" lon="6.75428">
        <ele>760</ele>
      </trkpt>
      <trkpt lat="45.5967" lon="6.75471">
        <ele>761</ele>
      </trkpt>
      <trkpt lat="45.59693" lon="6.75484">
        <ele>761</ele>
      </trkpt>
      <trkpt lat="45.59717" lon="6.75488">
        <ele>761</ele>
      </trkpt>
      <trkpt lat="45.59726" lon="6.75495">
        <ele>761</ele>
      </trkpt>
      <trkpt lat="45.59757" lon="6.7554">
        <ele>761.6</ele>
      </trkpt>
      <trkpt lat="45.59798" lon="6.75636">
        <ele>763</ele>
      </trkpt>
      <trkpt lat="45.59799" lon="6.75696">
        <ele>764</ele>
      </trkpt>
      <trkpt lat="45.59804" lon="6.75721">
        <ele>764.9</ele>
      </trkpt>
      <trkpt lat="45.59829" lon="6.75753">
        <ele>765.8</ele>
      </trkpt>
      <trkpt lat="45.59838" lon="6.75795">
        <ele>766.6</ele>
      </trkpt>
      <trkpt lat="45.59859" lon="6.75813">
        <ele>767.3</ele>
      </trkpt>
      <trkpt lat="45.59882" lon="6.75851">
        <ele>769.3</ele>
      </trkpt>
      <trkpt lat="45.59891" lon="6.75882">
        <ele>770.6</ele>
      </trkpt>
      <trkpt lat="45.59898" lon="6.75888">
        <ele>770.6</ele>
      </trkpt>
      <trkpt lat="45.59929" lon="6.75886">
        <ele>768.8</ele>
      </trkpt>
      <trkpt lat="45.5994" lon="6.75895">
        <ele>768.7</ele>
      </trkpt>
      <trkpt lat="45.59956" lon="6.75914">
        <ele>769</ele>
      </trkpt>
      <trkpt lat="45.59964" lon="6.75942">
        <ele>771.8</ele>
      </trkpt>
      <trkpt lat="45.59989" lon="6.7596">
        <ele>771.7</ele>
      </trkpt>
      <trkpt lat="45.60045" lon="6.76022">
        <ele>771.6</ele>
      </trkpt>
      <trkpt lat="45.60073" lon="6.76086">
        <ele>771.6</ele>
      </trkpt>
      <trkpt lat="45.60072" lon="6.76119">
        <ele>772.9</ele>
      </trkpt>
      <trkpt lat="45.60073" lon="6.76157">
        <ele>774.6</ele>
      </trkpt>
      <trkpt lat="45.60077" lon="6.76208">
        <ele>774.8</ele>
      </trkpt>
      <trkpt lat="45.60082" lon="6.76239">
        <ele>775.1</ele>
      </trkpt>
      <trkpt lat="45.60088" lon="6.76264">
        <ele>775</ele>
      </trkpt>
      <trkpt lat="45.60084" lon="6.7628">
        <ele>776</ele>
      </trkpt>
      <trkpt lat="45.60081" lon="6.76306">
        <ele>776.2</ele>
      </trkpt>
      <trkpt lat="45.60086" lon="6.76342">
        <ele>775.8</ele>
      </trkpt>
      <trkpt lat="45.60088" lon="6.76352">
        <ele>775.7</ele>
      </trkpt>
      <trkpt lat="45.60084" lon="6.76385">
        <ele>775.9</ele>
      </trkpt>
      <trkpt lat="45.60086" lon="6.76402">
        <ele>776.7</ele>
      </trkpt>
      <trkpt lat="45.6009" lon="6.76425">
        <ele>777.3</ele>
      </trkpt>
      <trkpt lat="45.60092" lon="6.76438">
        <ele>777</ele>
      </trkpt>
      <trkpt lat="45.60094" lon="6.76465">
        <ele>778.2</ele>
      </trkpt>
      <trkpt lat="45.601" lon="6.76479">
        <ele>778.7</ele>
      </trkpt>
      <trkpt lat="45.60148" lon="6.76558">
        <ele>782.1</ele>
      </trkpt>
      <trkpt lat="45.60156" lon="6.76569">
        <ele>781.8</ele>
      </trkpt>
      <trkpt lat="45.60161" lon="6.76579">
        <ele>782</ele>
      </trkpt>
      <trkpt lat="45.60165" lon="6.76599">
        <ele>782.2</ele>
      </trkpt>
      <trkpt lat="45.6017" lon="6.76611">
        <ele>781.9</ele>
      </trkpt>
      <trkpt lat="45.60185" lon="6.76629">
        <ele>782.2</ele>
      </trkpt>
      <trkpt lat="45.60231" lon="6.76654">
        <ele>781.6</ele>
      </trkpt>
      <trkpt lat="45.60243" lon="6.76664">
        <ele>781.3</ele>
      </trkpt>
      <trkpt lat="45.60259" lon="6.76677">
        <ele>783.1</ele>
      </trkpt>
      <trkpt lat="45.60271" lon="6.76687">
        <ele>784</ele>
      </trkpt>
      <trkpt lat="45.60274" lon="6.7669">
        <ele>784</ele>
      </trkpt>
      <trkpt lat="45.60288" lon="6.76693">
        <ele>783.6</ele>
      </trkpt>
      <trkpt lat="45.60295" lon="6.76696">
        <ele>783.8</ele>
      </trkpt>
      <trkpt lat="45.60305" lon="6.76702">
        <ele>784.8</ele>
      </trkpt>
      <trkpt lat="45.6031" lon="6.76706">
        <ele>785.2</ele>
      </trkpt>
      <trkpt lat="45.60313" lon="6.76708">
        <ele>785</ele>
      </trkpt>
      <trkpt lat="45.60315" lon="6.76705">
        <ele>784.3</ele>
      </trkpt>
      <trkpt lat="45.60313" lon="6.76702">
        <ele>783.9</ele>
      </trkpt>
      <trkpt lat="45.60305" lon="6.76693">
        <ele>782.8</ele>
      </trkpt>
      <trkpt lat="45.60299" lon="6.76688">
        <ele>782.4</ele>
      </trkpt>
      <trkpt lat="45.60289" lon="6.76683">
        <ele>782.7</ele>
      </trkpt>
      <trkpt lat="45.60281" lon="6.76681">
        <ele>783.2</ele>
      </trkpt>
      <trkpt lat="45.60275" lon="6.76681">
        <ele>783.5</ele>
      </trkpt>
      <trkpt lat="45.60272" lon="6.76678">
        <ele>783.3</ele>
      </trkpt>
      <trkpt lat="45.60271" lon="6.76674">
        <ele>783</ele>
      </trkpt>
      <trkpt lat="45.60303" lon="6.76615">
        <ele>785.1</ele>
      </trkpt>
      <trkpt lat="45.60305" lon="6.76614">
        <ele>785.5</ele>
      </trkpt>
      <trkpt lat="45.60308" lon="6.76614">
        <ele>785.8</ele>
      </trkpt>
      <trkpt lat="45.60311" lon="6.76617">
        <ele>785.9</ele>
      </trkpt>
      <trkpt lat="45.60339" lon="6.76649">
        <ele>788.5</ele>
      </trkpt>
      <trkpt lat="45.60374" lon="6.76703">
        <ele>789.2</ele>
      </trkpt>
      <trkpt lat="45.60385" lon="6.76735">
        <ele>787.3</ele>
      </trkpt>
      <trkpt lat="45.60468" lon="6.76822">
        <ele>790.8</ele>
      </trkpt>
      <trkpt lat="45.605" lon="6.76859">
        <ele>791.2</ele>
      </trkpt>
      <trkpt lat="45.60522" lon="6.76905">
        <ele>793.1</ele>
      </trkpt>
      <trkpt lat="45.60534" lon="6.76944">
        <ele>793.7</ele>
      </trkpt>
      <trkpt lat="45.6056" lon="6.76978">
        <ele>794.3</ele>
      </trkpt>
      <trkpt lat="45.6061" lon="6.77006">
        <ele>798</ele>
      </trkpt>
      <trkpt lat="45.60626" lon="6.77033">
        <ele>798.7</ele>
      </trkpt>
      <trkpt lat="45.6065" lon="6.77053">
        <ele>799.9</ele>
      </trkpt>
      <trkpt lat="45.60671" lon="6.77064">
        <ele>800</ele>
      </trkpt>
      <trkpt lat="45.60707" lon="6.77077">
        <ele>800.9</ele>
      </trkpt>
      <trkpt lat="45.60739" lon="6.77095">
        <ele>800.8</ele>
      </trkpt>
      <trkpt lat="45.60793" lon="6.77132">
        <ele>802</ele>
      </trkpt>
      <trkpt lat="45.60808" lon="6.77139">
        <ele>803.1</ele>
      </trkpt>
      <trkpt lat="45.60863" lon="6.77155">
        <ele>804</ele>
      </trkpt>
      <trkpt lat="45.60998" lon="6.77202">
        <ele>805.2</ele>
      </trkpt>
      <trkpt lat="45.61023" lon="6.77207">
        <ele>806.7</ele>
      </trkpt>
      <trkpt lat="45.61059" lon="6.77225">
        <ele>807.8</ele>
      </trkpt>
      <trkpt lat="45.61104" lon="6.77259">
        <ele>807.2</ele>
      </trkpt>
      <trkpt lat="45.6111" lon="6.77263">
        <ele>807</ele>
      </trkpt>
      <trkpt lat="45.61158" lon="6.77318">
        <ele>806.6</ele>
      </trkpt>
      <trkpt lat="45.6116" lon="6.77322">
        <ele>806.6</ele>
      </trkpt>
      <trkpt lat="45.61162" lon="6.77326">
        <ele>806.7</ele>
      </trkpt>
      <trkpt lat="45.61161" lon="6.77335">
        <ele>806.5</ele>
      </trkpt>
      <trkpt lat="45.61162" lon="6.77341">
        <ele>806.1</ele>
      </trkpt>
      <trkpt lat="45.61163" lon="6.77346">
        <ele>805.9</ele>
      </trkpt>
      <trkpt lat="45.61167" lon="6.77351">
        <ele>805.8</ele>
      </trkpt>
      <trkpt lat="45.61171" lon="6.77353">
        <ele>805.8</ele>
      </trkpt>
      <trkpt lat="45.61183" lon="6.77357">
        <ele>806.3</ele>
      </trkpt>
      <trkpt lat="45.61187" lon="6.77357">
        <ele>806.6</ele>
      </trkpt>
      <trkpt lat="45.61191" lon="6.77361">
        <ele>806.8</ele>
      </trkpt>
      <trkpt lat="45.61201" lon="6.77372">
        <ele>806.2</ele>
      </trkpt>
      <trkpt lat="45.61208" lon="6.77385">
        <ele>805.6</ele>
      </trkpt>
      <trkpt lat="45.6122" lon="6.77403">
        <ele>805.4</ele>
      </trkpt>
      <trkpt lat="45.61235" lon="6.77429">
        <ele>805.7</ele>
      </trkpt>
      <trkpt lat="45.61253" lon="6.77474">
        <ele>805.2</ele>
      </trkpt>
      <trkpt lat="45.61265" lon="6.77497">
        <ele>806.1</ele>
      </trkpt>
      <trkpt lat="45.61274" lon="6.77505">
        <ele>806.4</ele>
      </trkpt>
      <trkpt lat="45.61307" lon="6.77528">
        <ele>806</ele>
      </trkpt>
      <trkpt lat="45.61309" lon="6.77528">
        <ele>806</ele>
      </trkpt>
      <trkpt lat="45.61309" lon="6.77524">
        <ele>806.1</ele>
      </trkpt>
      <trkpt lat="45.61308" lon="6.77516">
        <ele>806.4</ele>
      </trkpt>
      <trkpt lat="45.61306" lon="6.77511">
        <ele>806.6</ele>
      </trkpt>
      <trkpt lat="45.61299" lon="6.7749">
        <ele>807</ele>
      </trkpt>
      <trkpt lat="45.613" lon="6.77486">
        <ele>807</ele>
      </trkpt>
      <trkpt lat="45.61302" lon="6.77482">
        <ele>807</ele>
      </trkpt>
      <trkpt lat="45.61307" lon="6.77478">
        <ele>807</ele>
      </trkpt>
      <trkpt lat="45.61315" lon="6.77477">
        <ele>807</ele>
      </trkpt>
      <trkpt lat="45.61363" lon="6.77469">
        <ele>807.1</ele>
      </trkpt>
      <trkpt lat="45.61407" lon="6.77463">
        <ele>807.3</ele>
      </trkpt>
    </trkseg>
  </trk>
</gpx>