<?xml version="1.0" encoding="UTF-8"?>
<gpx schemaLocation="http://www.topografix.com/GPX/1/1 http://www.topografix.com/GPX/1/1/gpx.xsd http://www.garmin.com/xmlschemas/GpxExtensions/v3 http://www.garmin.com/xmlschemas/GpxExtensionsv3.xsd http://www.garmin.com/xmlschemas/TrackPointExtension/v1 http://www.garmin.com/xmlschemas/TrackPointExtensionv1.xsd http://www.topografix.com/GPX/gpx_style/0/2 http://www.topografix.com/GPX/gpx_style/0/2/gpx_style.xsd" version="1.1" creator="https://gpx.studio" xmlns="http://www.topografix.com/GPX/1/1" xmlns:xsi="http://www.w3.org/2001/XMLSchema-instance" xsi:schemaLocation="http://www.topografix.com/GPX/1/1 http://www.topografix.com/GPX/1/1/gpx.xsd http://www.garmin.com/xmlschemas/GpxExtensions/v3 http://www.garmin.com/xmlschemas/GpxExtensionsv3.xsd http://www.garmin.com/xmlschemas/TrackPointExtension/v1 http://www.garmin.com/xmlschemas/TrackPointExtensionv1.xsd http://www.garmin.com/xmlschemas/PowerExtension/v1 http://www.garmin.com/xmlschemas/PowerExtensionv1.xsd http://www.topografix.com/GPX/gpx_style/0/2 http://www.topografix.com/GPX/gpx_style/0/2/gpx_style.xsd" xmlns:gpxtpx="http://www.garmin.com/xmlschemas/TrackPointExtension/v1" xmlns:gpxx="http://www.garmin.com/xmlschemas/GpxExtensions/v3" xmlns:gpxpx="http://www.garmin.com/xmlschemas/PowerExtension/v1" xmlns:gpx_style="http://www.topografix.com/GPX/gpx_style/0/2">
  <metadata>
    <name>Semi Run in Lyon</name>
    <author>
      <name>gpx.studio</name>
      <link href="https://gpx.studio"/>
    </author>
  </metadata>
  <wpt lat="45.76176737024078" lon="4.828619956970216">
    <ele>169.8</ele>
    <name>Départ</name>
    <cmt>Départ</cmt>
    <desc>Départ</desc>
    <sym>Circle, Green</sym>
  </wpt>
  <wpt lat="45.75692442916436" lon="4.830958843231202">
    <ele>176.1</ele>
    <name>Arrivée</name>
    <cmt>Arrivée</cmt>
    <desc>Arrivée</desc>
    <sym>Circle, Red</sym>
  </wpt>
  <wpt lat="45.75679343187477" lon="4.831618666648866">
    <ele>175.1</ele>
    <name>Ravitaillement complet</name>
    <cmt>Ravitaillement complet</cmt>
    <desc>Ravitaillement complet</desc>
    <sym>Restaurant</sym>
  </wpt>
  <wpt lat="45.79347291089815" lon="4.821990540204149">
    <ele>167.6</ele>
    <name>Ravitaillement complet</name>
    <cmt>Ravitaillement complet</cmt>
    <desc>Ravitaillement complet</desc>
    <sym>Restaurant</sym>
  </wpt>
  <wpt lat="45.80208892060983" lon="4.842138290405274">
    <ele>169.6</ele>
    <name>Ravitaillement complet</name>
    <cmt>Ravitaillement complet</cmt>
    <desc>Ravitaillement complet</desc>
    <sym>Restaurant</sym>
  </wpt>
  <wpt lat="45.76845098639401" lon="4.815412759780885">
    <ele>170.2</ele>
    <name>Ravitaillement complet</name>
    <cmt>Ravitaillement complet</cmt>
    <desc>Ravitaillement complet</desc>
    <sym>Restaurant</sym>
  </wpt>
  <trk>
    <name>new</name>
    <type>Running</type>
    <extensions>
      <gpx_style:line>
        <gpx_style:color>4347b0</gpx_style:color>
        <gpx_style:opacity>1</gpx_style:opacity>
      </gpx_style:line>
    </extensions>
    <trkseg>
      <trkpt lat="45.761767" lon="4.828626">
        <ele>171.3</ele>
      </trkpt>
      <trkpt lat="45.761764" lon="4.828644">
        <ele>171.3</ele>
      </trkpt>
      <trkpt lat="45.761733" lon="4.828819">
        <ele>169.8</ele>
      </trkpt>
      <trkpt lat="45.761728" lon="4.828845">
        <ele>169.5</ele>
      </trkpt>
      <trkpt lat="45.761861" lon="4.828897">
        <ele>169.8</ele>
      </trkpt>
      <trkpt lat="45.761881" lon="4.828904">
        <ele>169.8</ele>
      </trkpt>
      <trkpt lat="45.761907" lon="4.828914">
        <ele>169.8</ele>
      </trkpt>
      <trkpt lat="45.762242" lon="4.829127">
        <ele>169.3</ele>
      </trkpt>
      <trkpt lat="45.762402" lon="4.829207">
        <ele>169.3</ele>
      </trkpt>
      <trkpt lat="45.762908" lon="4.829393">
        <ele>169.3</ele>
      </trkpt>
      <trkpt lat="45.762972" lon="4.829408">
        <ele>169.3</ele>
      </trkpt>
      <trkpt lat="45.763079" lon="4.829426">
        <ele>169.3</ele>
      </trkpt>
      <trkpt lat="45.763213" lon="4.829443">
        <ele>169.3</ele>
      </trkpt>
      <trkpt lat="45.763273" lon="4.829443">
        <ele>169.5</ele>
      </trkpt>
      <trkpt lat="45.763293" lon="4.829442">
        <ele>169.5</ele>
      </trkpt>
      <trkpt lat="45.763338" lon="4.829441">
        <ele>169.5</ele>
      </trkpt>
      <trkpt lat="45.763491" lon="4.829438">
        <ele>169.8</ele>
      </trkpt>
      <trkpt lat="45.763514" lon="4.829437">
        <ele>169.8</ele>
      </trkpt>
      <trkpt lat="45.764393" lon="4.829418">
        <ele>169.8</ele>
      </trkpt>
      <trkpt lat="45.764488" lon="4.829404">
        <ele>169.8</ele>
      </trkpt>
      <trkpt lat="45.764568" lon="4.829356">
        <ele>170.3</ele>
      </trkpt>
      <trkpt lat="45.764658" lon="4.829265">
        <ele>170.8</ele>
      </trkpt>
      <trkpt lat="45.764682" lon="4.82924">
        <ele>171</ele>
      </trkpt>
      <trkpt lat="45.7647" lon="4.829229">
        <ele>171</ele>
      </trkpt>
      <trkpt lat="45.764805" lon="4.829167">
        <ele>171.3</ele>
      </trkpt>
      <trkpt lat="45.765333" lon="4.829137">
        <ele>172.8</ele>
      </trkpt>
      <trkpt lat="45.76548" lon="4.829121">
        <ele>173.5</ele>
      </trkpt>
      <trkpt lat="45.765531" lon="4.829103">
        <ele>174</ele>
      </trkpt>
      <trkpt lat="45.766156" lon="4.82889">
        <ele>173.8</ele>
      </trkpt>
      <trkpt lat="45.766187" lon="4.828878">
        <ele>173.5</ele>
      </trkpt>
      <trkpt lat="45.76624" lon="4.828854">
        <ele>173.3</ele>
      </trkpt>
      <trkpt lat="45.766261" lon="4.828863">
        <ele>172.8</ele>
      </trkpt>
      <trkpt lat="45.766305" lon="4.82884">
        <ele>172.8</ele>
      </trkpt>
      <trkpt lat="45.76634" lon="4.828792">
        <ele>172.8</ele>
      </trkpt>
      <trkpt lat="45.766351" lon="4.828773">
        <ele>172.8</ele>
      </trkpt>
      <trkpt lat="45.766359" lon="4.82875">
        <ele>173</ele>
      </trkpt>
      <trkpt lat="45.766374" lon="4.828732">
        <ele>173</ele>
      </trkpt>
      <trkpt lat="45.766391" lon="4.828707">
        <ele>173.3</ele>
      </trkpt>
      <trkpt lat="45.766443" lon="4.828631">
        <ele>173.5</ele>
      </trkpt>
      <trkpt lat="45.766488" lon="4.828583">
        <ele>173.5</ele>
      </trkpt>
      <trkpt lat="45.766698" lon="4.828279">
        <ele>174.8</ele>
      </trkpt>
      <trkpt lat="45.766703" lon="4.828252">
        <ele>174.8</ele>
      </trkpt>
      <trkpt lat="45.76671" lon="4.828221">
        <ele>174.5</ele>
      </trkpt>
      <trkpt lat="45.766741" lon="4.828175">
        <ele>174.3</ele>
      </trkpt>
      <trkpt lat="45.767084" lon="4.827683">
        <ele>170.8</ele>
      </trkpt>
      <trkpt lat="45.767102" lon="4.827657">
        <ele>170.5</ele>
      </trkpt>
      <trkpt lat="45.767115" lon="4.827638">
        <ele>170.3</ele>
      </trkpt>
      <trkpt lat="45.76713" lon="4.827608">
        <ele>170</ele>
      </trkpt>
      <trkpt lat="45.767194" lon="4.827466">
        <ele>169.3</ele>
      </trkpt>
      <trkpt lat="45.767264" lon="4.827289">
        <ele>168.3</ele>
      </trkpt>
      <trkpt lat="45.767324" lon="4.827094">
        <ele>167.5</ele>
      </trkpt>
      <trkpt lat="45.767376" lon="4.826886">
        <ele>166.8</ele>
      </trkpt>
      <trkpt lat="45.767484" lon="4.826378">
        <ele>165.3</ele>
      </trkpt>
      <trkpt lat="45.767496" lon="4.8263">
        <ele>165</ele>
      </trkpt>
      <trkpt lat="45.76745" lon="4.82629">
        <ele>165.8</ele>
      </trkpt>
      <trkpt lat="45.76745" lon="4.826243">
        <ele>165.8</ele>
      </trkpt>
      <trkpt lat="45.76745" lon="4.82629">
        <ele>165.8</ele>
      </trkpt>
      <trkpt lat="45.767496" lon="4.8263">
        <ele>165</ele>
      </trkpt>
      <trkpt lat="45.7675" lon="4.826177">
        <ele>165</ele>
      </trkpt>
      <trkpt lat="45.767468" lon="4.825457">
        <ele>165.5</ele>
      </trkpt>
      <trkpt lat="45.767406" lon="4.823932">
        <ele>168.3</ele>
      </trkpt>
      <trkpt lat="45.767417" lon="4.823864">
        <ele>168</ele>
      </trkpt>
      <trkpt lat="45.767427" lon="4.823817">
        <ele>167.8</ele>
      </trkpt>
      <trkpt lat="45.767408" lon="4.823244">
        <ele>169</ele>
      </trkpt>
      <trkpt lat="45.767398" lon="4.82322">
        <ele>169.5</ele>
      </trkpt>
      <trkpt lat="45.767385" lon="4.823188">
        <ele>170.3</ele>
      </trkpt>
      <trkpt lat="45.767384" lon="4.823117">
        <ele>170.3</ele>
      </trkpt>
      <trkpt lat="45.767375" lon="4.822843">
        <ele>170.8</ele>
      </trkpt>
      <trkpt lat="45.767356" lon="4.822593">
        <ele>171.8</ele>
      </trkpt>
      <trkpt lat="45.767329" lon="4.822445">
        <ele>173</ele>
      </trkpt>
      <trkpt lat="45.767134" lon="4.821787">
        <ele>179</ele>
      </trkpt>
      <trkpt lat="45.766868" lon="4.820774">
        <ele>166</ele>
      </trkpt>
      <trkpt lat="45.766861" lon="4.820746">
        <ele>166</ele>
      </trkpt>
      <trkpt lat="45.766853" lon="4.820717">
        <ele>165.8</ele>
      </trkpt>
      <trkpt lat="45.766826" lon="4.82061">
        <ele>165.8</ele>
      </trkpt>
      <trkpt lat="45.766814" lon="4.82056">
        <ele>165.8</ele>
      </trkpt>
      <trkpt lat="45.766816" lon="4.82053">
        <ele>165.8</ele>
      </trkpt>
      <trkpt lat="45.766818" lon="4.820501">
        <ele>165.8</ele>
      </trkpt>
      <trkpt lat="45.766696" lon="4.820014">
        <ele>165</ele>
      </trkpt>
      <trkpt lat="45.76668" lon="4.819951">
        <ele>165</ele>
      </trkpt>
      <trkpt lat="45.766663" lon="4.819928">
        <ele>165</ele>
      </trkpt>
      <trkpt lat="45.766652" lon="4.819911">
        <ele>165.3</ele>
      </trkpt>
      <trkpt lat="45.766638" lon="4.819878">
        <ele>165.5</ele>
      </trkpt>
      <trkpt lat="45.766598" lon="4.819709">
        <ele>166.5</ele>
      </trkpt>
      <trkpt lat="45.766551" lon="4.819464">
        <ele>167.5</ele>
      </trkpt>
      <trkpt lat="45.766509" lon="4.819185">
        <ele>168.3</ele>
      </trkpt>
      <trkpt lat="45.766479" lon="4.818857">
        <ele>169.3</ele>
      </trkpt>
      <trkpt lat="45.766467" lon="4.818607">
        <ele>169.8</ele>
      </trkpt>
      <trkpt lat="45.766474" lon="4.818313">
        <ele>169.8</ele>
      </trkpt>
      <trkpt lat="45.766485" lon="4.818127">
        <ele>170</ele>
      </trkpt>
      <trkpt lat="45.766527" lon="4.817798">
        <ele>169.5</ele>
      </trkpt>
      <trkpt lat="45.766547" lon="4.817639">
        <ele>169.3</ele>
      </trkpt>
      <trkpt lat="45.766851" lon="4.816017">
        <ele>180.8</ele>
      </trkpt>
      <trkpt lat="45.76691" lon="4.815819">
        <ele>179.8</ele>
      </trkpt>
      <trkpt lat="45.76706" lon="4.815402">
        <ele>176</ele>
      </trkpt>
      <trkpt lat="45.767083" lon="4.815339">
        <ele>175.5</ele>
      </trkpt>
      <trkpt lat="45.767096" lon="4.815326">
        <ele>175</ele>
      </trkpt>
      <trkpt lat="45.767117" lon="4.815307">
        <ele>174.5</ele>
      </trkpt>
      <trkpt lat="45.767252" lon="4.81492">
        <ele>171</ele>
      </trkpt>
      <trkpt lat="45.767256" lon="4.814882">
        <ele>171</ele>
      </trkpt>
      <trkpt lat="45.76726" lon="4.814838">
        <ele>170.8</ele>
      </trkpt>
      <trkpt lat="45.767291" lon="4.814749">
        <ele>170</ele>
      </trkpt>
      <trkpt lat="45.767308" lon="4.814701">
        <ele>169.5</ele>
      </trkpt>
      <trkpt lat="45.767337" lon="4.814623">
        <ele>168.8</ele>
      </trkpt>
      <trkpt lat="45.767354" lon="4.814573">
        <ele>168.3</ele>
      </trkpt>
      <trkpt lat="45.767573" lon="4.813958">
        <ele>167.3</ele>
      </trkpt>
      <trkpt lat="45.767634" lon="4.813805">
        <ele>168.5</ele>
      </trkpt>
      <trkpt lat="45.767693" lon="4.813682">
        <ele>169.3</ele>
      </trkpt>
      <trkpt lat="45.76776" lon="4.813568">
        <ele>169.8</ele>
      </trkpt>
      <trkpt lat="45.767826" lon="4.813461">
        <ele>170</ele>
      </trkpt>
      <trkpt lat="45.767897" lon="4.813364">
        <ele>170</ele>
      </trkpt>
      <trkpt lat="45.768004" lon="4.813231">
        <ele>169.5</ele>
      </trkpt>
      <trkpt lat="45.76814" lon="4.813106">
        <ele>168.8</ele>
      </trkpt>
      <trkpt lat="45.768338" lon="4.812955">
        <ele>167.5</ele>
      </trkpt>
      <trkpt lat="45.768452" lon="4.812889">
        <ele>167.5</ele>
      </trkpt>
      <trkpt lat="45.76863" lon="4.812815">
        <ele>167.3</ele>
      </trkpt>
      <trkpt lat="45.768736" lon="4.812792">
        <ele>167</ele>
      </trkpt>
      <trkpt lat="45.768905" lon="4.81276">
        <ele>166.3</ele>
      </trkpt>
      <trkpt lat="45.769031" lon="4.812778">
        <ele>165.5</ele>
      </trkpt>
      <trkpt lat="45.769091" lon="4.812786">
        <ele>165.3</ele>
      </trkpt>
      <trkpt lat="45.769686" lon="4.812686">
        <ele>165</ele>
      </trkpt>
      <trkpt lat="45.769715" lon="4.812705">
        <ele>165</ele>
      </trkpt>
      <trkpt lat="45.769745" lon="4.812725">
        <ele>165</ele>
      </trkpt>
      <trkpt lat="45.769894" lon="4.812686">
        <ele>165</ele>
      </trkpt>
      <trkpt lat="45.769941" lon="4.812619">
        <ele>165</ele>
      </trkpt>
      <trkpt lat="45.769988" lon="4.812621">
        <ele>165</ele>
      </trkpt>
      <trkpt lat="45.770091" lon="4.812598">
        <ele>165</ele>
      </trkpt>
      <trkpt lat="45.770109" lon="4.812557">
        <ele>165</ele>
      </trkpt>
      <trkpt lat="45.770283" lon="4.812549">
        <ele>165</ele>
      </trkpt>
      <trkpt lat="45.770637" lon="4.812439">
        <ele>165.5</ele>
      </trkpt>
      <trkpt lat="45.771078" lon="4.812251">
        <ele>167.8</ele>
      </trkpt>
      <trkpt lat="45.771274" lon="4.812115">
        <ele>169.3</ele>
      </trkpt>
      <trkpt lat="45.771826" lon="4.811814">
        <ele>170.8</ele>
      </trkpt>
      <trkpt lat="45.771957" lon="4.811685">
        <ele>170.5</ele>
      </trkpt>
      <trkpt lat="45.772015" lon="4.811656">
        <ele>170.3</ele>
      </trkpt>
      <trkpt lat="45.772444" lon="4.811231">
        <ele>169.3</ele>
      </trkpt>
      <trkpt lat="45.773315" lon="4.810224">
        <ele>171.8</ele>
      </trkpt>
      <trkpt lat="45.773341" lon="4.810231">
        <ele>171.3</ele>
      </trkpt>
      <trkpt lat="45.773609" lon="4.809921">
        <ele>171.3</ele>
      </trkpt>
      <trkpt lat="45.773612" lon="4.809887">
        <ele>171.3</ele>
      </trkpt>
      <trkpt lat="45.773905" lon="4.80954">
        <ele>170.8</ele>
      </trkpt>
      <trkpt lat="45.774548" lon="4.808994">
        <ele>169.8</ele>
      </trkpt>
      <trkpt lat="45.774571" lon="4.808947">
        <ele>169.8</ele>
      </trkpt>
      <trkpt lat="45.77469" lon="4.808845">
        <ele>169.5</ele>
      </trkpt>
      <trkpt lat="45.774681" lon="4.808816">
        <ele>169.8</ele>
      </trkpt>
      <trkpt lat="45.774742" lon="4.808768">
        <ele>169.8</ele>
      </trkpt>
      <trkpt lat="45.775117" lon="4.808546">
        <ele>169.8</ele>
      </trkpt>
      <trkpt lat="45.77517" lon="4.808514">
        <ele>169.5</ele>
      </trkpt>
      <trkpt lat="45.775212" lon="4.808466">
        <ele>170</ele>
      </trkpt>
      <trkpt lat="45.775421" lon="4.808365">
        <ele>170.8</ele>
      </trkpt>
      <trkpt lat="45.77664" lon="4.807882">
        <ele>168.3</ele>
      </trkpt>
      <trkpt lat="45.776778" lon="4.80783">
        <ele>168.5</ele>
      </trkpt>
      <trkpt lat="45.776951" lon="4.807801">
        <ele>168.8</ele>
      </trkpt>
      <trkpt lat="45.777166" lon="4.807779">
        <ele>168.8</ele>
      </trkpt>
      <trkpt lat="45.777223" lon="4.807781">
        <ele>168.8</ele>
      </trkpt>
      <trkpt lat="45.777261" lon="4.807742">
        <ele>169.3</ele>
      </trkpt>
      <trkpt lat="45.778467" lon="4.807964">
        <ele>170.5</ele>
      </trkpt>
      <trkpt lat="45.778542" lon="4.807992">
        <ele>170.5</ele>
      </trkpt>
      <trkpt lat="45.778607" lon="4.808029">
        <ele>170.5</ele>
      </trkpt>
      <trkpt lat="45.779243" lon="4.808399">
        <ele>173.5</ele>
      </trkpt>
      <trkpt lat="45.779314" lon="4.808442">
        <ele>173.5</ele>
      </trkpt>
      <trkpt lat="45.779962" lon="4.808885">
        <ele>175.3</ele>
      </trkpt>
      <trkpt lat="45.780115" lon="4.808971">
        <ele>174.5</ele>
      </trkpt>
      <trkpt lat="45.780276" lon="4.809048">
        <ele>173.5</ele>
      </trkpt>
      <trkpt lat="45.780347" lon="4.809103">
        <ele>173</ele>
      </trkpt>
      <trkpt lat="45.780384" lon="4.809132">
        <ele>172.5</ele>
      </trkpt>
      <trkpt lat="45.780461" lon="4.809181">
        <ele>172</ele>
      </trkpt>
      <trkpt lat="45.780553" lon="4.809251">
        <ele>171</ele>
      </trkpt>
      <trkpt lat="45.780585" lon="4.809275">
        <ele>170.5</ele>
      </trkpt>
      <trkpt lat="45.780818" lon="4.809443">
        <ele>168.3</ele>
      </trkpt>
      <trkpt lat="45.782029" lon="4.810439">
        <ele>167</ele>
      </trkpt>
      <trkpt lat="45.782448" lon="4.810781">
        <ele>170.5</ele>
      </trkpt>
      <trkpt lat="45.782483" lon="4.81081">
        <ele>170.8</ele>
      </trkpt>
      <trkpt lat="45.782558" lon="4.810885">
        <ele>170.8</ele>
      </trkpt>
      <trkpt lat="45.782573" lon="4.810901">
        <ele>170.8</ele>
      </trkpt>
      <trkpt lat="45.782595" lon="4.811017">
        <ele>170.3</ele>
      </trkpt>
      <trkpt lat="45.782617" lon="4.81104">
        <ele>170.3</ele>
      </trkpt>
      <trkpt lat="45.782887" lon="4.811258">
        <ele>171.3</ele>
      </trkpt>
      <trkpt lat="45.782936" lon="4.811235">
        <ele>171.8</ele>
      </trkpt>
      <trkpt lat="45.784102" lon="4.812178">
        <ele>173</ele>
      </trkpt>
      <trkpt lat="45.784156" lon="4.812222">
        <ele>173.3</ele>
      </trkpt>
      <trkpt lat="45.785047" lon="4.81295">
        <ele>167.3</ele>
      </trkpt>
      <trkpt lat="45.785081" lon="4.812922">
        <ele>167.5</ele>
      </trkpt>
      <trkpt lat="45.785072" lon="4.812914">
        <ele>167.5</ele>
      </trkpt>
      <trkpt lat="45.785081" lon="4.812922">
        <ele>167.5</ele>
      </trkpt>
      <trkpt lat="45.7852" lon="4.813">
        <ele>167.3</ele>
      </trkpt>
      <trkpt lat="45.78536" lon="4.813105">
        <ele>167</ele>
      </trkpt>
      <trkpt lat="45.785513" lon="4.813205">
        <ele>167</ele>
      </trkpt>
      <trkpt lat="45.785531" lon="4.813217">
        <ele>167</ele>
      </trkpt>
      <trkpt lat="45.785537" lon="4.813221">
        <ele>167.3</ele>
      </trkpt>
      <trkpt lat="45.785549" lon="4.813229">
        <ele>167.3</ele>
      </trkpt>
      <trkpt lat="45.785562" lon="4.813237">
        <ele>167.3</ele>
      </trkpt>
      <trkpt lat="45.785577" lon="4.813247">
        <ele>167.3</ele>
      </trkpt>
      <trkpt lat="45.78561" lon="4.813269">
        <ele>167.3</ele>
      </trkpt>
      <trkpt lat="45.7857" lon="4.813327">
        <ele>167.3</ele>
      </trkpt>
      <trkpt lat="45.785958" lon="4.813497">
        <ele>167.5</ele>
      </trkpt>
      <trkpt lat="45.785969" lon="4.813504">
        <ele>167.5</ele>
      </trkpt>
      <trkpt lat="45.786134" lon="4.813612">
        <ele>167.5</ele>
      </trkpt>
      <trkpt lat="45.786682" lon="4.81397">
        <ele>169.8</ele>
      </trkpt>
      <trkpt lat="45.786876" lon="4.814098">
        <ele>170.8</ele>
      </trkpt>
      <trkpt lat="45.787218" lon="4.814322">
        <ele>170.8</ele>
      </trkpt>
      <trkpt lat="45.78724" lon="4.814337">
        <ele>171</ele>
      </trkpt>
      <trkpt lat="45.787263" lon="4.814351">
        <ele>171</ele>
      </trkpt>
      <trkpt lat="45.787339" lon="4.814401">
        <ele>171.3</ele>
      </trkpt>
      <trkpt lat="45.787508" lon="4.814538">
        <ele>171.8</ele>
      </trkpt>
      <trkpt lat="45.787622" lon="4.814632">
        <ele>172.5</ele>
      </trkpt>
      <trkpt lat="45.787677" lon="4.814677">
        <ele>172.5</ele>
      </trkpt>
      <trkpt lat="45.787709" lon="4.814704">
        <ele>172.5</ele>
      </trkpt>
      <trkpt lat="45.787747" lon="4.814734">
        <ele>172.5</ele>
      </trkpt>
      <trkpt lat="45.788102" lon="4.815023">
        <ele>171.8</ele>
      </trkpt>
      <trkpt lat="45.78812" lon="4.815041">
        <ele>171.8</ele>
      </trkpt>
      <trkpt lat="45.788168" lon="4.815087">
        <ele>171.5</ele>
      </trkpt>
      <trkpt lat="45.788204" lon="4.815123">
        <ele>171.5</ele>
      </trkpt>
      <trkpt lat="45.788643" lon="4.815565">
        <ele>171.8</ele>
      </trkpt>
      <trkpt lat="45.788718" lon="4.81564">
        <ele>171.5</ele>
      </trkpt>
      <trkpt lat="45.788825" lon="4.815748">
        <ele>171.3</ele>
      </trkpt>
      <trkpt lat="45.789176" lon="4.816191">
        <ele>169.8</ele>
      </trkpt>
      <trkpt lat="45.789556" lon="4.816724">
        <ele>169</ele>
      </trkpt>
      <trkpt lat="45.789913" lon="4.817226">
        <ele>168.8</ele>
      </trkpt>
      <trkpt lat="45.79007" lon="4.817446">
        <ele>168.8</ele>
      </trkpt>
      <trkpt lat="45.790341" lon="4.817834">
        <ele>167.5</ele>
      </trkpt>
      <trkpt lat="45.790391" lon="4.817905">
        <ele>167.3</ele>
      </trkpt>
      <trkpt lat="45.790566" lon="4.818166">
        <ele>167.3</ele>
      </trkpt>
      <trkpt lat="45.790792" lon="4.818502">
        <ele>167.3</ele>
      </trkpt>
      <trkpt lat="45.790835" lon="4.818566">
        <ele>167</ele>
      </trkpt>
      <trkpt lat="45.79082" lon="4.818588">
        <ele>167</ele>
      </trkpt>
      <trkpt lat="45.791118" lon="4.818985">
        <ele>167.3</ele>
      </trkpt>
      <trkpt lat="45.791346" lon="4.81929">
        <ele>168</ele>
      </trkpt>
      <trkpt lat="45.791365" lon="4.819314">
        <ele>167.8</ele>
      </trkpt>
      <trkpt lat="45.791659" lon="4.819693">
        <ele>167</ele>
      </trkpt>
      <trkpt lat="45.792188" lon="4.820349">
        <ele>166.5</ele>
      </trkpt>
      <trkpt lat="45.792652" lon="4.820925">
        <ele>166.3</ele>
      </trkpt>
      <trkpt lat="45.792747" lon="4.821039">
        <ele>166.8</ele>
      </trkpt>
      <trkpt lat="45.792782" lon="4.821081">
        <ele>167.3</ele>
      </trkpt>
      <trkpt lat="45.792814" lon="4.82112">
        <ele>167.3</ele>
      </trkpt>
      <trkpt lat="45.792886" lon="4.821205">
        <ele>168</ele>
      </trkpt>
      <trkpt lat="45.792894" lon="4.821214">
        <ele>168</ele>
      </trkpt>
      <trkpt lat="45.793358" lon="4.821794">
        <ele>169.3</ele>
      </trkpt>
      <trkpt lat="45.793563" lon="4.822108">
        <ele>169.5</ele>
      </trkpt>
      <trkpt lat="45.793841" lon="4.822601">
        <ele>170.3</ele>
      </trkpt>
      <trkpt lat="45.794612" lon="4.823969">
        <ele>167.8</ele>
      </trkpt>
      <trkpt lat="45.794628" lon="4.823955">
        <ele>168</ele>
      </trkpt>
      <trkpt lat="45.794659" lon="4.823922">
        <ele>168.3</ele>
      </trkpt>
      <trkpt lat="45.794692" lon="4.823888">
        <ele>168.5</ele>
      </trkpt>
      <trkpt lat="45.79517663401209" lon="4.824755254795812">
        <ele>168</ele>
      </trkpt>
      <trkpt lat="45.795242" lon="4.824871">
        <ele>167.5</ele>
      </trkpt>
      <trkpt lat="45.795314" lon="4.825009">
        <ele>167.5</ele>
      </trkpt>
      <trkpt lat="45.795617" lon="4.825576">
        <ele>169.5</ele>
      </trkpt>
      <trkpt lat="45.795767" lon="4.825859">
        <ele>170.3</ele>
      </trkpt>
      <trkpt lat="45.795696" lon="4.825937">
        <ele>169.3</ele>
      </trkpt>
      <trkpt lat="45.795807" lon="4.826159">
        <ele>168.5</ele>
      </trkpt>
      <trkpt lat="45.796118" lon="4.826774">
        <ele>166.8</ele>
      </trkpt>
      <trkpt lat="45.796089" lon="4.82679">
        <ele>166.5</ele>
      </trkpt>
      <trkpt lat="45.79631" lon="4.827216">
        <ele>167.3</ele>
      </trkpt>
      <trkpt lat="45.796331" lon="4.827195">
        <ele>167.3</ele>
      </trkpt>
      <trkpt lat="45.796305" lon="4.827144">
        <ele>167</ele>
      </trkpt>
      <trkpt lat="45.796331" lon="4.827195">
        <ele>167.3</ele>
      </trkpt>
      <trkpt lat="45.79631" lon="4.827216">
        <ele>167.3</ele>
      </trkpt>
      <trkpt lat="45.79656" lon="4.827698">
        <ele>166.8</ele>
      </trkpt>
      <trkpt lat="45.796981" lon="4.828511">
        <ele>166.5</ele>
      </trkpt>
      <trkpt lat="45.797446" lon="4.829395">
        <ele>169</ele>
      </trkpt>
      <trkpt lat="45.79747" lon="4.829367">
        <ele>169.3</ele>
      </trkpt>
      <trkpt lat="45.797517" lon="4.829462">
        <ele>169</ele>
      </trkpt>
      <trkpt lat="45.79759" lon="4.829605">
        <ele>168.5</ele>
      </trkpt>
      <trkpt lat="45.797699" lon="4.829863">
        <ele>168</ele>
      </trkpt>
      <trkpt lat="45.797722" lon="4.829914">
        <ele>168</ele>
      </trkpt>
      <trkpt lat="45.797737" lon="4.829943">
        <ele>168</ele>
      </trkpt>
      <trkpt lat="45.797717" lon="4.829958">
        <ele>167.8</ele>
      </trkpt>
      <trkpt lat="45.79767" lon="4.829994">
        <ele>167</ele>
      </trkpt>
      <trkpt lat="45.797838" lon="4.830391">
        <ele>168.5</ele>
      </trkpt>
      <trkpt lat="45.797869" lon="4.830409">
        <ele>168.8</ele>
      </trkpt>
      <trkpt lat="45.797891" lon="4.830395">
        <ele>169</ele>
      </trkpt>
      <trkpt lat="45.797933" lon="4.830362">
        <ele>169.5</ele>
      </trkpt>
      <trkpt lat="45.797953" lon="4.830409">
        <ele>169.8</ele>
      </trkpt>
      <trkpt lat="45.797977" lon="4.830466">
        <ele>170</ele>
      </trkpt>
      <trkpt lat="45.797986" lon="4.830496">
        <ele>170</ele>
      </trkpt>
      <trkpt lat="45.797999" lon="4.830525">
        <ele>170</ele>
      </trkpt>
      <trkpt lat="45.798009" lon="4.830549">
        <ele>170</ele>
      </trkpt>
      <trkpt lat="45.798164" lon="4.830929">
        <ele>171</ele>
      </trkpt>
      <trkpt lat="45.798183" lon="4.830974">
        <ele>171.3</ele>
      </trkpt>
      <trkpt lat="45.798216" lon="4.831054">
        <ele>171.3</ele>
      </trkpt>
      <trkpt lat="45.798256" lon="4.831148">
        <ele>171.5</ele>
      </trkpt>
      <trkpt lat="45.798288" lon="4.831224">
        <ele>171.5</ele>
      </trkpt>
      <trkpt lat="45.798333" lon="4.831332">
        <ele>171.5</ele>
      </trkpt>
      <trkpt lat="45.798462" lon="4.831636">
        <ele>171.8</ele>
      </trkpt>
      <trkpt lat="45.798521" lon="4.831773">
        <ele>172</ele>
      </trkpt>
      <trkpt lat="45.798562" lon="4.831868">
        <ele>171.8</ele>
      </trkpt>
      <trkpt lat="45.798685" lon="4.832249">
        <ele>171</ele>
      </trkpt>
      <trkpt lat="45.798779" lon="4.832577">
        <ele>170.5</ele>
      </trkpt>
      <trkpt lat="45.798753" lon="4.83259">
        <ele>170</ele>
      </trkpt>
      <trkpt lat="45.798728" lon="4.832604">
        <ele>170</ele>
      </trkpt>
      <trkpt lat="45.798939" lon="4.833312">
        <ele>170.8</ele>
      </trkpt>
      <trkpt lat="45.799127" lon="4.833928">
        <ele>171.3</ele>
      </trkpt>
      <trkpt lat="45.799182" lon="4.833897">
        <ele>171.8</ele>
      </trkpt>
      <trkpt lat="45.799628" lon="4.835409">
        <ele>173.8</ele>
      </trkpt>
      <trkpt lat="45.799732" lon="4.835762">
        <ele>174.5</ele>
      </trkpt>
      <trkpt lat="45.799911" lon="4.83616">
        <ele>175.5</ele>
      </trkpt>
      <trkpt lat="45.800092" lon="4.836543">
        <ele>175</ele>
      </trkpt>
      <trkpt lat="45.800107" lon="4.836632">
        <ele>174.3</ele>
      </trkpt>
      <trkpt lat="45.800304" lon="4.837015">
        <ele>173.5</ele>
      </trkpt>
      <trkpt lat="45.800582" lon="4.837509">
        <ele>171.8</ele>
      </trkpt>
      <trkpt lat="45.800787" lon="4.837814">
        <ele>172</ele>
      </trkpt>
      <trkpt lat="45.801076" lon="4.838158">
        <ele>174.3</ele>
      </trkpt>
      <trkpt lat="45.801221" lon="4.838305">
        <ele>174.8</ele>
      </trkpt>
      <trkpt lat="45.801419" lon="4.838475">
        <ele>175.3</ele>
      </trkpt>
      <trkpt lat="45.8018" lon="4.838725">
        <ele>177.3</ele>
      </trkpt>
      <trkpt lat="45.80202" lon="4.838831">
        <ele>177.8</ele>
      </trkpt>
      <trkpt lat="45.802546" lon="4.839052">
        <ele>177.3</ele>
      </trkpt>
      <trkpt lat="45.802796" lon="4.839188">
        <ele>177.8</ele>
      </trkpt>
      <trkpt lat="45.802998" lon="4.839268">
        <ele>178.3</ele>
      </trkpt>
      <trkpt lat="45.803157" lon="4.839392">
        <ele>178.3</ele>
      </trkpt>
      <trkpt lat="45.803473" lon="4.839699">
        <ele>176.5</ele>
      </trkpt>
      <trkpt lat="45.803594" lon="4.839816">
        <ele>176</ele>
      </trkpt>
      <trkpt lat="45.804026" lon="4.840129">
        <ele>172.5</ele>
      </trkpt>
      <trkpt lat="45.804643" lon="4.840491">
        <ele>173.3</ele>
      </trkpt>
      <trkpt lat="45.804681" lon="4.840509">
        <ele>173.3</ele>
      </trkpt>
      <trkpt lat="45.806281" lon="4.841397">
        <ele>173.3</ele>
      </trkpt>
      <trkpt lat="45.807302" lon="4.841747">
        <ele>173.3</ele>
      </trkpt>
      <trkpt lat="45.807658" lon="4.841814">
        <ele>173.8</ele>
      </trkpt>
      <trkpt lat="45.808183" lon="4.841913">
        <ele>174.8</ele>
      </trkpt>
      <trkpt lat="45.808859" lon="4.84192">
        <ele>175.3</ele>
      </trkpt>
      <trkpt lat="45.809261" lon="4.841913">
        <ele>175.5</ele>
      </trkpt>
      <trkpt lat="45.809838" lon="4.841946">
        <ele>174.8</ele>
      </trkpt>
      <trkpt lat="45.809883" lon="4.841955">
        <ele>174.8</ele>
      </trkpt>
      <trkpt lat="45.810281" lon="4.84203">
        <ele>174</ele>
      </trkpt>
      <trkpt lat="45.811024" lon="4.842296">
        <ele>173</ele>
      </trkpt>
      <trkpt lat="45.811903" lon="4.84282">
        <ele>169.5</ele>
      </trkpt>
      <trkpt lat="45.812542" lon="4.843394">
        <ele>165.3</ele>
      </trkpt>
      <trkpt lat="45.812685" lon="4.843567">
        <ele>166</ele>
      </trkpt>
      <trkpt lat="45.813273" lon="4.844279">
        <ele>169.8</ele>
      </trkpt>
      <trkpt lat="45.813549" lon="4.8446">
        <ele>168.5</ele>
      </trkpt>
      <trkpt lat="45.81384" lon="4.844939">
        <ele>167.5</ele>
      </trkpt>
      <trkpt lat="45.814021" lon="4.845157">
        <ele>167.5</ele>
      </trkpt>
      <trkpt lat="45.814478" lon="4.845706">
        <ele>167</ele>
      </trkpt>
      <trkpt lat="45.814699" lon="4.845982">
        <ele>168</ele>
      </trkpt>
      <trkpt lat="45.814771" lon="4.846099">
        <ele>168.5</ele>
      </trkpt>
      <trkpt lat="45.814799" lon="4.846151">
        <ele>168.5</ele>
      </trkpt>
      <trkpt lat="45.814824" lon="4.846196">
        <ele>168.8</ele>
      </trkpt>
      <trkpt lat="45.814802" lon="4.846221">
        <ele>168.8</ele>
      </trkpt>
      <trkpt lat="45.814785" lon="4.846262">
        <ele>168.5</ele>
      </trkpt>
      <trkpt lat="45.814781" lon="4.846303">
        <ele>168.5</ele>
      </trkpt>
      <trkpt lat="45.814788" lon="4.846348">
        <ele>168.5</ele>
      </trkpt>
      <trkpt lat="45.814739" lon="4.846376">
        <ele>168.3</ele>
      </trkpt>
      <trkpt lat="45.814711" lon="4.846392">
        <ele>168.3</ele>
      </trkpt>
      <trkpt lat="45.814627" lon="4.846435">
        <ele>167.8</ele>
      </trkpt>
      <trkpt lat="45.814614" lon="4.846385">
        <ele>167.5</ele>
      </trkpt>
      <trkpt lat="45.812918" lon="4.847257">
        <ele>166</ele>
      </trkpt>
      <trkpt lat="45.812853" lon="4.847234">
        <ele>166</ele>
      </trkpt>
      <trkpt lat="45.812816" lon="4.847217">
        <ele>166</ele>
      </trkpt>
      <trkpt lat="45.812779" lon="4.847184">
        <ele>166</ele>
      </trkpt>
      <trkpt lat="45.812759" lon="4.84712">
        <ele>166</ele>
      </trkpt>
      <trkpt lat="45.812717" lon="4.847097">
        <ele>166</ele>
      </trkpt>
      <trkpt lat="45.812664" lon="4.847052">
        <ele>166</ele>
      </trkpt>
      <trkpt lat="45.812412" lon="4.84679">
        <ele>166</ele>
      </trkpt>
      <trkpt lat="45.812393" lon="4.846774">
        <ele>166</ele>
      </trkpt>
      <trkpt lat="45.812336" lon="4.8468">
        <ele>166.5</ele>
      </trkpt>
      <trkpt lat="45.812154" lon="4.846587">
        <ele>166.3</ele>
      </trkpt>
      <trkpt lat="45.812133" lon="4.846572">
        <ele>166.3</ele>
      </trkpt>
      <trkpt lat="45.812051" lon="4.84654">
        <ele>166.5</ele>
      </trkpt>
      <trkpt lat="45.811957" lon="4.84652">
        <ele>166.8</ele>
      </trkpt>
      <trkpt lat="45.811826" lon="4.84636">
        <ele>166.3</ele>
      </trkpt>
      <trkpt lat="45.811715" lon="4.846237">
        <ele>165.8</ele>
      </trkpt>
      <trkpt lat="45.811523" lon="4.846037">
        <ele>166.3</ele>
      </trkpt>
      <trkpt lat="45.811202" lon="4.845731">
        <ele>168.3</ele>
      </trkpt>
      <trkpt lat="45.810944" lon="4.845505">
        <ele>169.5</ele>
      </trkpt>
      <trkpt lat="45.810597" lon="4.845231">
        <ele>171</ele>
      </trkpt>
      <trkpt lat="45.810339" lon="4.845027">
        <ele>172.3</ele>
      </trkpt>
      <trkpt lat="45.809588" lon="4.844458">
        <ele>172.3</ele>
      </trkpt>
      <trkpt lat="45.809464" lon="4.844378">
        <ele>172.8</ele>
      </trkpt>
      <trkpt lat="45.809338" lon="4.844301">
        <ele>173.5</ele>
      </trkpt>
      <trkpt lat="45.809137" lon="4.84421">
        <ele>175</ele>
      </trkpt>
      <trkpt lat="45.808881" lon="4.844125">
        <ele>173.8</ele>
      </trkpt>
      <trkpt lat="45.808738" lon="4.844087">
        <ele>173</ele>
      </trkpt>
      <trkpt lat="45.808443" lon="4.844019">
        <ele>171.8</ele>
      </trkpt>
      <trkpt lat="45.807433" lon="4.843813">
        <ele>170</ele>
      </trkpt>
      <trkpt lat="45.807319" lon="4.843789">
        <ele>169.8</ele>
      </trkpt>
      <trkpt lat="45.806984" lon="4.843715">
        <ele>168.8</ele>
      </trkpt>
      <trkpt lat="45.806105" lon="4.843505">
        <ele>170.5</ele>
      </trkpt>
      <trkpt lat="45.805801" lon="4.843422">
        <ele>171.8</ele>
      </trkpt>
      <trkpt lat="45.805443" lon="4.843311">
        <ele>172.5</ele>
      </trkpt>
      <trkpt lat="45.804568" lon="4.843026">
        <ele>171.5</ele>
      </trkpt>
      <trkpt lat="45.804296" lon="4.842938">
        <ele>170.5</ele>
      </trkpt>
      <trkpt lat="45.803197" lon="4.842582">
        <ele>169.3</ele>
      </trkpt>
      <trkpt lat="45.802105" lon="4.842228">
        <ele>168.5</ele>
      </trkpt>
      <trkpt lat="45.80194" lon="4.842167">
        <ele>168.5</ele>
      </trkpt>
      <trkpt lat="45.801849" lon="4.842124">
        <ele>168.5</ele>
      </trkpt>
      <trkpt lat="45.801742" lon="4.84206">
        <ele>168.8</ele>
      </trkpt>
      <trkpt lat="45.801501" lon="4.841891">
        <ele>170.5</ele>
      </trkpt>
      <trkpt lat="45.80089" lon="4.841421">
        <ele>171.8</ele>
      </trkpt>
      <trkpt lat="45.800541" lon="4.841113">
        <ele>170.8</ele>
      </trkpt>
      <trkpt lat="45.800271" lon="4.840877">
        <ele>172.5</ele>
      </trkpt>
      <trkpt lat="45.80001" lon="4.840604">
        <ele>172.8</ele>
      </trkpt>
      <trkpt lat="45.799625" lon="4.840156">
        <ele>170.8</ele>
      </trkpt>
      <trkpt lat="45.798466" lon="4.838858">
        <ele>176.3</ele>
      </trkpt>
      <trkpt lat="45.798286" lon="4.838613">
        <ele>173.3</ele>
      </trkpt>
      <trkpt lat="45.797977" lon="4.838151">
        <ele>178.3</ele>
      </trkpt>
      <trkpt lat="45.797838" lon="4.837904">
        <ele>180.8</ele>
      </trkpt>
      <trkpt lat="45.797719000000015" lon="4.837651">
        <ele>184.1</ele>
      </trkpt>
      <trkpt lat="45.79759270226779" lon="4.8373773920421606">
        <ele>181</ele>
      </trkpt>
      <trkpt lat="45.797462" lon="4.837106">
        <ele>184.8</ele>
      </trkpt>
      <trkpt lat="45.797354" lon="4.836877">
        <ele>188.8</ele>
      </trkpt>
      <trkpt lat="45.797117" lon="4.836404">
        <ele>194.5</ele>
      </trkpt>
      <trkpt lat="45.797079" lon="4.836327">
        <ele>195</ele>
      </trkpt>
      <trkpt lat="45.797054" lon="4.836275">
        <ele>195.5</ele>
      </trkpt>
      <trkpt lat="45.796996" lon="4.836153">
        <ele>196</ele>
      </trkpt>
      <trkpt lat="45.796954" lon="4.836015">
        <ele>195.8</ele>
      </trkpt>
      <trkpt lat="45.796929" lon="4.83586">
        <ele>194.8</ele>
      </trkpt>
      <trkpt lat="45.796922" lon="4.835733">
        <ele>193.5</ele>
      </trkpt>
      <trkpt lat="45.796922" lon="4.835723">
        <ele>193.5</ele>
      </trkpt>
      <trkpt lat="45.796918" lon="4.835653">
        <ele>193</ele>
      </trkpt>
      <trkpt lat="45.79689" lon="4.835169">
        <ele>188.5</ele>
      </trkpt>
      <trkpt lat="45.796864" lon="4.834965">
        <ele>187.5</ele>
      </trkpt>
      <trkpt lat="45.796838" lon="4.834857">
        <ele>188</ele>
      </trkpt>
      <trkpt lat="45.796707" lon="4.834494">
        <ele>190</ele>
      </trkpt>
      <trkpt lat="45.796657" lon="4.834353">
        <ele>190.5</ele>
      </trkpt>
      <trkpt lat="45.796521" lon="4.833972">
        <ele>192.3</ele>
      </trkpt>
      <trkpt lat="45.796239" lon="4.833178">
        <ele>194</ele>
      </trkpt>
      <trkpt lat="45.796211" lon="4.833084">
        <ele>194</ele>
      </trkpt>
      <trkpt lat="45.796203" lon="4.833055">
        <ele>194</ele>
      </trkpt>
      <trkpt lat="45.79616" lon="4.832837">
        <ele>193.3</ele>
      </trkpt>
      <trkpt lat="45.796092" lon="4.832229">
        <ele>188.8</ele>
      </trkpt>
      <trkpt lat="45.796073" lon="4.832053">
        <ele>187.8</ele>
      </trkpt>
      <trkpt lat="45.796046" lon="4.831951">
        <ele>187.5</ele>
      </trkpt>
      <trkpt lat="45.796031" lon="4.831869">
        <ele>187</ele>
      </trkpt>
      <trkpt lat="45.796021" lon="4.831823">
        <ele>186.8</ele>
      </trkpt>
      <trkpt lat="45.796014" lon="4.831792">
        <ele>186.8</ele>
      </trkpt>
      <trkpt lat="45.795992" lon="4.831689">
        <ele>186.3</ele>
      </trkpt>
      <trkpt lat="45.79597" lon="4.831586">
        <ele>185.8</ele>
      </trkpt>
      <trkpt lat="45.795963" lon="4.831553">
        <ele>185.8</ele>
      </trkpt>
      <trkpt lat="45.795753" lon="4.830548">
        <ele>176.5</ele>
      </trkpt>
      <trkpt lat="45.795701" lon="4.830361">
        <ele>173.8</ele>
      </trkpt>
      <trkpt lat="45.795647" lon="4.83022">
        <ele>172</ele>
      </trkpt>
      <trkpt lat="45.795567" lon="4.830008">
        <ele>169.5</ele>
      </trkpt>
      <trkpt lat="45.795453" lon="4.829724">
        <ele>170</ele>
      </trkpt>
      <trkpt lat="45.795186" lon="4.829113">
        <ele>169.3</ele>
      </trkpt>
      <trkpt lat="45.795145" lon="4.829022">
        <ele>169</ele>
      </trkpt>
      <trkpt lat="45.795105" lon="4.828933">
        <ele>168.8</ele>
      </trkpt>
      <trkpt lat="45.794898" lon="4.82855">
        <ele>167.5</ele>
      </trkpt>
      <trkpt lat="45.794842" lon="4.828459">
        <ele>167.5</ele>
      </trkpt>
      <trkpt lat="45.7948" lon="4.828397">
        <ele>167.5</ele>
      </trkpt>
      <trkpt lat="45.794617" lon="4.828132">
        <ele>167.8</ele>
      </trkpt>
      <trkpt lat="45.794511" lon="4.827982">
        <ele>167.5</ele>
      </trkpt>
      <trkpt lat="45.794467" lon="4.82792">
        <ele>167.5</ele>
      </trkpt>
      <trkpt lat="45.794387" lon="4.827807">
        <ele>167</ele>
      </trkpt>
      <trkpt lat="45.794307" lon="4.827693">
        <ele>166.3</ele>
      </trkpt>
      <trkpt lat="45.794282" lon="4.827657">
        <ele>166.3</ele>
      </trkpt>
      <trkpt lat="45.794265" lon="4.827633">
        <ele>166</ele>
      </trkpt>
      <trkpt lat="45.793642" lon="4.826748">
        <ele>167.5</ele>
      </trkpt>
      <trkpt lat="45.793568" lon="4.826644">
        <ele>167.8</ele>
      </trkpt>
      <trkpt lat="45.79345" lon="4.826453">
        <ele>167.5</ele>
      </trkpt>
      <trkpt lat="45.793394" lon="4.826416">
        <ele>167.5</ele>
      </trkpt>
      <trkpt lat="45.793228" lon="4.826145">
        <ele>166.8</ele>
      </trkpt>
      <trkpt lat="45.793142" lon="4.825996">
        <ele>166.5</ele>
      </trkpt>
      <trkpt lat="45.792954" lon="4.825669">
        <ele>166.5</ele>
      </trkpt>
      <trkpt lat="45.792849" lon="4.825483">
        <ele>166.5</ele>
      </trkpt>
      <trkpt lat="45.792764" lon="4.82533">
        <ele>166.3</ele>
      </trkpt>
      <trkpt lat="45.792496" lon="4.824852">
        <ele>165.8</ele>
      </trkpt>
      <trkpt lat="45.792158" lon="4.824249">
        <ele>166.3</ele>
      </trkpt>
      <trkpt lat="45.792105" lon="4.824155">
        <ele>166.3</ele>
      </trkpt>
      <trkpt lat="45.791953" lon="4.823883">
        <ele>166.3</ele>
      </trkpt>
      <trkpt lat="45.791902" lon="4.823744">
        <ele>166</ele>
      </trkpt>
      <trkpt lat="45.791848" lon="4.823657">
        <ele>165.8</ele>
      </trkpt>
      <trkpt lat="45.791779" lon="4.823531">
        <ele>165.5</ele>
      </trkpt>
      <trkpt lat="45.791774" lon="4.823522">
        <ele>165.5</ele>
      </trkpt>
      <trkpt lat="45.791624" lon="4.823253">
        <ele>165.3</ele>
      </trkpt>
      <trkpt lat="45.791609" lon="4.823227">
        <ele>165.3</ele>
      </trkpt>
      <trkpt lat="45.791576" lon="4.823168">
        <ele>165.5</ele>
      </trkpt>
      <trkpt lat="45.791525" lon="4.823072">
        <ele>165.8</ele>
      </trkpt>
      <trkpt lat="45.791489" lon="4.823006">
        <ele>165.8</ele>
      </trkpt>
      <trkpt lat="45.791471" lon="4.822973">
        <ele>166</ele>
      </trkpt>
      <trkpt lat="45.791438" lon="4.822911">
        <ele>166</ele>
      </trkpt>
      <trkpt lat="45.79143" lon="4.822894">
        <ele>166.3</ele>
      </trkpt>
      <trkpt lat="45.791268" lon="4.822583">
        <ele>166.5</ele>
      </trkpt>
      <trkpt lat="45.791157" lon="4.82239">
        <ele>166.5</ele>
      </trkpt>
      <trkpt lat="45.791153" lon="4.822383">
        <ele>166.8</ele>
      </trkpt>
      <trkpt lat="45.790969" lon="4.822099">
        <ele>167.8</ele>
      </trkpt>
      <trkpt lat="45.790832" lon="4.821887">
        <ele>168.5</ele>
      </trkpt>
      <trkpt lat="45.790791" lon="4.821827">
        <ele>168.8</ele>
      </trkpt>
      <trkpt lat="45.790603" lon="4.821566">
        <ele>168.5</ele>
      </trkpt>
      <trkpt lat="45.790552" lon="4.8215">
        <ele>168.3</ele>
      </trkpt>
      <trkpt lat="45.790488" lon="4.821415">
        <ele>168</ele>
      </trkpt>
      <trkpt lat="45.790456" lon="4.821376">
        <ele>167.8</ele>
      </trkpt>
      <trkpt lat="45.790331" lon="4.821227">
        <ele>167.8</ele>
      </trkpt>
      <trkpt lat="45.790248" lon="4.821128">
        <ele>167.8</ele>
      </trkpt>
      <trkpt lat="45.790187" lon="4.821055">
        <ele>167.8</ele>
      </trkpt>
      <trkpt lat="45.790122" lon="4.820978">
        <ele>167.8</ele>
      </trkpt>
      <trkpt lat="45.790022" lon="4.820857">
        <ele>167.8</ele>
      </trkpt>
      <trkpt lat="45.78995" lon="4.820771">
        <ele>167.8</ele>
      </trkpt>
      <trkpt lat="45.789881" lon="4.820688">
        <ele>167.5</ele>
      </trkpt>
      <trkpt lat="45.789774" lon="4.820559">
        <ele>167.5</ele>
      </trkpt>
      <trkpt lat="45.789683" lon="4.820451">
        <ele>167.5</ele>
      </trkpt>
      <trkpt lat="45.789639" lon="4.820396">
        <ele>167.5</ele>
      </trkpt>
      <trkpt lat="45.789438" lon="4.820154">
        <ele>167.3</ele>
      </trkpt>
      <trkpt lat="45.789394" lon="4.8201">
        <ele>167.3</ele>
      </trkpt>
      <trkpt lat="45.789276" lon="4.819958">
        <ele>167.3</ele>
      </trkpt>
      <trkpt lat="45.789208" lon="4.819876">
        <ele>167.3</ele>
      </trkpt>
      <trkpt lat="45.789127" lon="4.81978">
        <ele>167.3</ele>
      </trkpt>
      <trkpt lat="45.789102" lon="4.81975">
        <ele>167.3</ele>
      </trkpt>
      <trkpt lat="45.788522" lon="4.819062">
        <ele>167.5</ele>
      </trkpt>
      <trkpt lat="45.788198" lon="4.818677">
        <ele>170.5</ele>
      </trkpt>
      <trkpt lat="45.788043" lon="4.818494">
        <ele>172</ele>
      </trkpt>
      <trkpt lat="45.787995" lon="4.818438">
        <ele>172.3</ele>
      </trkpt>
      <trkpt lat="45.787965" lon="4.818401">
        <ele>172.3</ele>
      </trkpt>
      <trkpt lat="45.787883" lon="4.818305">
        <ele>172.3</ele>
      </trkpt>
      <trkpt lat="45.787759" lon="4.818158">
        <ele>172.3</ele>
      </trkpt>
      <trkpt lat="45.786887" lon="4.817123">
        <ele>173.5</ele>
      </trkpt>
      <trkpt lat="45.78674" lon="4.816988">
        <ele>171.8</ele>
      </trkpt>
      <trkpt lat="45.786689" lon="4.816951">
        <ele>172</ele>
      </trkpt>
      <trkpt lat="45.786195" lon="4.816595">
        <ele>176.3</ele>
      </trkpt>
      <trkpt lat="45.785901" lon="4.816381">
        <ele>177.3</ele>
      </trkpt>
      <trkpt lat="45.78528" lon="4.815929">
        <ele>180</ele>
      </trkpt>
      <trkpt lat="45.785239" lon="4.8159">
        <ele>180.3</ele>
      </trkpt>
      <trkpt lat="45.784651" lon="4.815392">
        <ele>176.8</ele>
      </trkpt>
      <trkpt lat="45.784125" lon="4.814936">
        <ele>174</ele>
      </trkpt>
      <trkpt lat="45.782953" lon="4.813874">
        <ele>175</ele>
      </trkpt>
      <trkpt lat="45.782343" lon="4.813339">
        <ele>176</ele>
      </trkpt>
      <trkpt lat="45.781525" lon="4.812623">
        <ele>177.8</ele>
      </trkpt>
      <trkpt lat="45.781401" lon="4.812532">
        <ele>177</ele>
      </trkpt>
      <trkpt lat="45.78138" lon="4.812517">
        <ele>176.8</ele>
      </trkpt>
      <trkpt lat="45.781297" lon="4.812456">
        <ele>176.5</ele>
      </trkpt>
      <trkpt lat="45.781229" lon="4.812407">
        <ele>176.5</ele>
      </trkpt>
      <trkpt lat="45.78118" lon="4.812371">
        <ele>176.5</ele>
      </trkpt>
      <trkpt lat="45.781127" lon="4.812332">
        <ele>176.5</ele>
      </trkpt>
      <trkpt lat="45.781096" lon="4.812309">
        <ele>176.3</ele>
      </trkpt>
      <trkpt lat="45.780793" lon="4.812088">
        <ele>176</ele>
      </trkpt>
      <trkpt lat="45.780713" lon="4.812043">
        <ele>175.8</ele>
      </trkpt>
      <trkpt lat="45.780584" lon="4.81197">
        <ele>174.8</ele>
      </trkpt>
      <trkpt lat="45.780464" lon="4.811901">
        <ele>174</ele>
      </trkpt>
      <trkpt lat="45.780291" lon="4.811802">
        <ele>172</ele>
      </trkpt>
      <trkpt lat="45.780028" lon="4.811718">
        <ele>169.3</ele>
      </trkpt>
      <trkpt lat="45.780017" lon="4.811713">
        <ele>169</ele>
      </trkpt>
      <trkpt lat="45.779922" lon="4.811667">
        <ele>168.8</ele>
      </trkpt>
      <trkpt lat="45.779788" lon="4.811603">
        <ele>170</ele>
      </trkpt>
      <trkpt lat="45.779737" lon="4.811581">
        <ele>170.5</ele>
      </trkpt>
      <trkpt lat="45.779625" lon="4.811532">
        <ele>171.3</ele>
      </trkpt>
      <trkpt lat="45.779556" lon="4.811502">
        <ele>171.8</ele>
      </trkpt>
      <trkpt lat="45.779526" lon="4.81149">
        <ele>172</ele>
      </trkpt>
      <trkpt lat="45.779501" lon="4.811479">
        <ele>172</ele>
      </trkpt>
      <trkpt lat="45.778392" lon="4.810992">
        <ele>173</ele>
      </trkpt>
      <trkpt lat="45.778217" lon="4.810921">
        <ele>172.3</ele>
      </trkpt>
      <trkpt lat="45.77813" lon="4.810887">
        <ele>172</ele>
      </trkpt>
      <trkpt lat="45.778075" lon="4.810866">
        <ele>171.8</ele>
      </trkpt>
      <trkpt lat="45.778029" lon="4.810847">
        <ele>171.8</ele>
      </trkpt>
      <trkpt lat="45.777972" lon="4.810824">
        <ele>171.5</ele>
      </trkpt>
      <trkpt lat="45.777454" lon="4.810617">
        <ele>171.3</ele>
      </trkpt>
      <trkpt lat="45.777217" lon="4.810523">
        <ele>171.3</ele>
      </trkpt>
      <trkpt lat="45.776641" lon="4.810371">
        <ele>172.8</ele>
      </trkpt>
      <trkpt lat="45.776569" lon="4.810361">
        <ele>172.8</ele>
      </trkpt>
      <trkpt lat="45.776506" lon="4.810352">
        <ele>172.5</ele>
      </trkpt>
      <trkpt lat="45.77634" lon="4.810328">
        <ele>172</ele>
      </trkpt>
      <trkpt lat="45.775984" lon="4.810312">
        <ele>171.3</ele>
      </trkpt>
      <trkpt lat="45.775691" lon="4.810339">
        <ele>170.3</ele>
      </trkpt>
      <trkpt lat="45.775592" lon="4.810381">
        <ele>169.8</ele>
      </trkpt>
      <trkpt lat="45.775508" lon="4.81044">
        <ele>169.5</ele>
      </trkpt>
      <trkpt lat="45.775432" lon="4.810455">
        <ele>169.3</ele>
      </trkpt>
      <trkpt lat="45.775291" lon="4.810486">
        <ele>168.8</ele>
      </trkpt>
      <trkpt lat="45.775089" lon="4.810559">
        <ele>168.5</ele>
      </trkpt>
      <trkpt lat="45.775072" lon="4.810566">
        <ele>168.5</ele>
      </trkpt>
      <trkpt lat="45.774995" lon="4.810606">
        <ele>168.5</ele>
      </trkpt>
      <trkpt lat="45.774869" lon="4.810668">
        <ele>168.3</ele>
      </trkpt>
      <trkpt lat="45.774809" lon="4.810741">
        <ele>168.3</ele>
      </trkpt>
      <trkpt lat="45.77480499999999" lon="4.810676">
        <ele>168.4</ele>
      </trkpt>
      <trkpt lat="45.77467942911332" lon="4.810796688735962">
        <ele>168.4</ele>
      </trkpt>
      <trkpt lat="45.77455385794388" lon="4.810917377471925">
        <ele>167.5</ele>
      </trkpt>
      <trkpt lat="45.774451429066005" lon="4.810964688735963">
        <ele>167</ele>
      </trkpt>
      <trkpt lat="45.774349" lon="4.811012">
        <ele>166.6</ele>
      </trkpt>
      <trkpt lat="45.77431" lon="4.811044">
        <ele>167</ele>
      </trkpt>
      <trkpt lat="45.774181" lon="4.811179">
        <ele>167</ele>
      </trkpt>
      <trkpt lat="45.77402" lon="4.811363">
        <ele>167.5</ele>
      </trkpt>
      <trkpt lat="45.773974" lon="4.811313">
        <ele>167</ele>
      </trkpt>
      <trkpt lat="45.773885" lon="4.811482">
        <ele>167.3</ele>
      </trkpt>
      <trkpt lat="45.773688" lon="4.811859">
        <ele>168</ele>
      </trkpt>
      <trkpt lat="45.773647" lon="4.811936">
        <ele>168.3</ele>
      </trkpt>
      <trkpt lat="45.773576" lon="4.812074">
        <ele>169</ele>
      </trkpt>
      <trkpt lat="45.773498" lon="4.812224">
        <ele>169.8</ele>
      </trkpt>
      <trkpt lat="45.773316" lon="4.812495">
        <ele>171.8</ele>
      </trkpt>
      <trkpt lat="45.773133" lon="4.8127">
        <ele>174.2</ele>
      </trkpt>
      <trkpt lat="45.77294169088503" lon="4.812894983386994">
        <ele>174.8</ele>
      </trkpt>
      <trkpt lat="45.772750381113845" lon="4.813089966773988">
        <ele>174.3</ele>
      </trkpt>
      <trkpt lat="45.77242672194192" lon="4.813309907913208">
        <ele>171.4</ele>
      </trkpt>
      <trkpt lat="45.772103060891666" lon="4.813529849052429">
        <ele>171.2</ele>
      </trkpt>
      <trkpt lat="45.77189165121468" lon="4.813626408576966">
        <ele>172.5</ele>
      </trkpt>
      <trkpt lat="45.77168024073629" lon="4.813722968101502">
        <ele>176.5</ele>
      </trkpt>
      <trkpt lat="45.77124062210074" lon="4.813883984050752">
        <ele>184.2</ele>
      </trkpt>
      <trkpt lat="45.770801" lon="4.814045">
        <ele>180.4</ele>
      </trkpt>
      <trkpt lat="45.770496" lon="4.814154">
        <ele>178.8</ele>
      </trkpt>
      <trkpt lat="45.77047" lon="4.814157">
        <ele>178.5</ele>
      </trkpt>
      <trkpt lat="45.770356" lon="4.814175">
        <ele>177.3</ele>
      </trkpt>
      <trkpt lat="45.770348" lon="4.814231">
        <ele>178.3</ele>
      </trkpt>
      <trkpt lat="45.77024" lon="4.814256">
        <ele>177</ele>
      </trkpt>
      <trkpt lat="45.770125" lon="4.814289">
        <ele>175.8</ele>
      </trkpt>
      <trkpt lat="45.770046" lon="4.814305">
        <ele>175</ele>
      </trkpt>
      <trkpt lat="45.769673" lon="4.814526">
        <ele>175.5</ele>
      </trkpt>
      <trkpt lat="45.769634" lon="4.814524">
        <ele>175.3</ele>
      </trkpt>
      <trkpt lat="45.76953" lon="4.814587">
        <ele>175.5</ele>
      </trkpt>
      <trkpt lat="45.769374" lon="4.814681">
        <ele>176.3</ele>
      </trkpt>
      <trkpt lat="45.769343" lon="4.814722">
        <ele>176.8</ele>
      </trkpt>
      <trkpt lat="45.768991" lon="4.814935">
        <ele>178</ele>
      </trkpt>
      <trkpt lat="45.768916" lon="4.814962">
        <ele>177.8</ele>
      </trkpt>
      <trkpt lat="45.768766" lon="4.815057">
        <ele>177.3</ele>
      </trkpt>
      <trkpt lat="45.768716" lon="4.815097">
        <ele>176.8</ele>
      </trkpt>
      <trkpt lat="45.768616" lon="4.815197">
        <ele>176</ele>
      </trkpt>
      <trkpt lat="45.768516" lon="4.815315">
        <ele>175</ele>
      </trkpt>
      <trkpt lat="45.768428" lon="4.815443">
        <ele>173.8</ele>
      </trkpt>
      <trkpt lat="45.768382" lon="4.81553">
        <ele>173</ele>
      </trkpt>
      <trkpt lat="45.768353" lon="4.815594">
        <ele>172.5</ele>
      </trkpt>
      <trkpt lat="45.768348" lon="4.815637">
        <ele>172.3</ele>
      </trkpt>
      <trkpt lat="45.7681" lon="4.816113">
        <ele>171.3</ele>
      </trkpt>
      <trkpt lat="45.76809" lon="4.81615">
        <ele>171.5</ele>
      </trkpt>
      <trkpt lat="45.767847" lon="4.81708">
        <ele>171</ele>
      </trkpt>
      <trkpt lat="45.767791" lon="4.817147">
        <ele>170.5</ele>
      </trkpt>
      <trkpt lat="45.767773" lon="4.817226">
        <ele>170.5</ele>
      </trkpt>
      <trkpt lat="45.76772" lon="4.817499">
        <ele>170.8</ele>
      </trkpt>
      <trkpt lat="45.767689" lon="4.81771">
        <ele>170.8</ele>
      </trkpt>
      <trkpt lat="45.767709" lon="4.817783">
        <ele>171.3</ele>
      </trkpt>
      <trkpt lat="45.767631" lon="4.818299">
        <ele>171.3</ele>
      </trkpt>
      <trkpt lat="45.767639" lon="4.818531">
        <ele>172.8</ele>
      </trkpt>
      <trkpt lat="45.767664" lon="4.819025">
        <ele>176.5</ele>
      </trkpt>
      <trkpt lat="45.767724" lon="4.819526">
        <ele>177.3</ele>
      </trkpt>
      <trkpt lat="45.767918" lon="4.820726">
        <ele>177.3</ele>
      </trkpt>
      <trkpt lat="45.76811" lon="4.82154">
        <ele>177.8</ele>
      </trkpt>
      <trkpt lat="45.768166" lon="4.821793">
        <ele>178.3</ele>
      </trkpt>
      <trkpt lat="45.768227" lon="4.822153">
        <ele>178.8</ele>
      </trkpt>
      <trkpt lat="45.768238" lon="4.822219">
        <ele>178.8</ele>
      </trkpt>
      <trkpt lat="45.768253" lon="4.822308">
        <ele>178.8</ele>
      </trkpt>
      <trkpt lat="45.768293" lon="4.822685">
        <ele>178.5</ele>
      </trkpt>
      <trkpt lat="45.76831" lon="4.822852">
        <ele>178.3</ele>
      </trkpt>
      <trkpt lat="45.768322" lon="4.822999">
        <ele>178</ele>
      </trkpt>
      <trkpt lat="45.768334" lon="4.823289">
        <ele>177</ele>
      </trkpt>
      <trkpt lat="45.768355" lon="4.823752">
        <ele>176.5</ele>
      </trkpt>
      <trkpt lat="45.768388" lon="4.824183">
        <ele>176.3</ele>
      </trkpt>
      <trkpt lat="45.768402" lon="4.824245">
        <ele>176.3</ele>
      </trkpt>
      <trkpt lat="45.768408" lon="4.824306">
        <ele>176</ele>
      </trkpt>
      <trkpt lat="45.768429" lon="4.824729">
        <ele>173.8</ele>
      </trkpt>
      <trkpt lat="45.768431" lon="4.82478">
        <ele>173.3</ele>
      </trkpt>
      <trkpt lat="45.768486" lon="4.825898">
        <ele>171.3</ele>
      </trkpt>
      <trkpt lat="45.768476" lon="4.826003">
        <ele>171.3</ele>
      </trkpt>
      <trkpt lat="45.768377" lon="4.826664">
        <ele>171</ele>
      </trkpt>
      <trkpt lat="45.768231" lon="4.827312">
        <ele>174.8</ele>
      </trkpt>
      <trkpt lat="45.768138" lon="4.827628">
        <ele>174.8</ele>
      </trkpt>
      <trkpt lat="45.76812" lon="4.827689">
        <ele>174.3</ele>
      </trkpt>
      <trkpt lat="45.768084" lon="4.82781">
        <ele>173.8</ele>
      </trkpt>
      <trkpt lat="45.76796200000001" lon="4.828218">
        <ele>172.2</ele>
      </trkpt>
      <trkpt lat="45.767375759436284" lon="4.829148539337158">
        <ele>172.8</ele>
      </trkpt>
      <trkpt lat="45.76678951271132" lon="4.830079078674317">
        <ele>175.7</ele>
      </trkpt>
      <trkpt lat="45.76670975641269" lon="4.830191539337159">
        <ele>177.3</ele>
      </trkpt>
      <trkpt lat="45.76663000000001" lon="4.830304">
        <ele>179.1</ele>
      </trkpt>
      <trkpt lat="45.766810793532144" lon="4.83105252843094">
        <ele>183.6</ele>
      </trkpt>
      <trkpt lat="45.76699158647829" lon="4.831801056861878">
        <ele>186.5</ele>
      </trkpt>
      <trkpt lat="45.767094494133886" lon="4.832417964935304">
        <ele>186.1</ele>
      </trkpt>
      <trkpt lat="45.76719740159962" lon="4.83303487300873">
        <ele>183.8</ele>
      </trkpt>
      <trkpt lat="45.76724791974057" lon="4.833697378635407">
        <ele>182.4</ele>
      </trkpt>
      <trkpt lat="45.76729843783578" lon="4.834359884262085">
        <ele>183.3</ele>
      </trkpt>
      <trkpt lat="45.76746723965717" lon="4.835607034710927">
        <ele>181.3</ele>
      </trkpt>
      <trkpt lat="45.7676360409677" lon="4.836854185159769">
        <ele>189.3</ele>
      </trkpt>
      <trkpt lat="45.76780484176746" lon="4.83810133560861">
        <ele>172.8</ele>
      </trkpt>
      <trkpt lat="45.76783355262798" lon="4.838313460350038">
        <ele>169.8</ele>
      </trkpt>
      <trkpt lat="45.76822272379801" lon="4.838300049304963">
        <ele>169.5</ele>
      </trkpt>
      <trkpt lat="45.76861189225279" lon="4.838286638259888">
        <ele>167.2</ele>
      </trkpt>
      <trkpt lat="45.76862311822562" lon="4.839485585689545">
        <ele>166</ele>
      </trkpt>
      <trkpt lat="45.76863434419619" lon="4.840684533119202">
        <ele>165.8</ele>
      </trkpt>
      <trkpt lat="45.76898967322989" lon="4.840666266559601">
        <ele>168.3</ele>
      </trkpt>
      <trkpt lat="45.769345" lon="4.840648">
        <ele>170.7</ele>
      </trkpt>
      <trkpt lat="45.769488" lon="4.840641">
        <ele>170</ele>
      </trkpt>
      <trkpt lat="45.769759" lon="4.840646">
        <ele>170.5</ele>
      </trkpt>
      <trkpt lat="45.76976" lon="4.840595">
        <ele>170</ele>
      </trkpt>
      <trkpt lat="45.770843" lon="4.840630999999999">
        <ele>171.9</ele>
      </trkpt>
      <trkpt lat="45.77167134901844" lon="4.8406684953956605">
        <ele>166.7</ele>
      </trkpt>
      <trkpt lat="45.77249968573424" lon="4.840705990791321">
        <ele>171.9</ele>
      </trkpt>
      <trkpt lat="45.77268677194511" lon="4.8407596349716195">
        <ele>171.9</ele>
      </trkpt>
      <trkpt lat="45.772873857528396" lon="4.840813279151917">
        <ele>171.1</ele>
      </trkpt>
      <trkpt lat="45.773670731455326" lon="4.841368884545047">
        <ele>168.2</ele>
      </trkpt>
      <trkpt lat="45.77446759399605" lon="4.841924489938175">
        <ele>173</ele>
      </trkpt>
      <trkpt lat="45.77526444515049" lon="4.842480095331305">
        <ele>169.3</ele>
      </trkpt>
      <trkpt lat="45.77588210752517" lon="4.842910766601563">
        <ele>170.8</ele>
      </trkpt>
      <trkpt lat="45.77584656323004" lon="4.843018054962159">
        <ele>172.9</ele>
      </trkpt>
      <trkpt lat="45.77581101891229" lon="4.843125343322755">
        <ele>175.3</ele>
      </trkpt>
      <trkpt lat="45.775779216082434" lon="4.843173623085023">
        <ele>176.3</ele>
      </trkpt>
      <trkpt lat="45.77574741323441" lon="4.843221902847292">
        <ele>177.2</ele>
      </trkpt>
      <trkpt lat="45.77495908684206" lon="4.842641857338402">
        <ele>170.1</ele>
      </trkpt>
      <trkpt lat="45.77417074930558" lon="4.8420618118295105">
        <ele>178.2</ele>
      </trkpt>
      <trkpt lat="45.773382400625" lon="4.841481766320622">
        <ele>173.9</ele>
      </trkpt>
      <trkpt lat="45.77319564326356" lon="4.841344356536866">
        <ele>173.3</ele>
      </trkpt>
      <trkpt lat="45.77279528165986" lon="4.841194152832033">
        <ele>174.6</ele>
      </trkpt>
      <trkpt lat="45.772394917182055" lon="4.841043949127199">
        <ele>174.6</ele>
      </trkpt>
      <trkpt lat="45.771508840851475" lon="4.841029834335587">
        <ele>170</ele>
      </trkpt>
      <trkpt lat="45.77062275044345" lon="4.841015719543976">
        <ele>179.2</ele>
      </trkpt>
      <trkpt lat="45.769736645957934" lon="4.841001604752365">
        <ele>177.6</ele>
      </trkpt>
      <trkpt lat="45.76970080109769" lon="4.84100103378296">
        <ele>177.3</ele>
      </trkpt>
      <trkpt lat="45.7688184510819" lon="4.841118923790715">
        <ele>170.8</ele>
      </trkpt>
      <trkpt lat="45.767936087108126" lon="4.84123681379847">
        <ele>174</ele>
      </trkpt>
      <trkpt lat="45.767053709176345" lon="4.841354703806226">
        <ele>177.4</ele>
      </trkpt>
      <trkpt lat="45.76672963886201" lon="4.841398000717164">
        <ele>176.1</ele>
      </trkpt>
      <trkpt lat="45.76601114765751" lon="4.841419458389283">
        <ele>174.8</ele>
      </trkpt>
      <trkpt lat="45.7652926471988" lon="4.841440916061402">
        <ele>172.9</ele>
      </trkpt>
      <trkpt lat="45.76444315815554" lon="4.841424822807313">
        <ele>172.4</ele>
      </trkpt>
      <trkpt lat="45.76359365617656" lon="4.841408729553224">
        <ele>168.9</ele>
      </trkpt>
      <trkpt lat="45.76271000860715" lon="4.841311056467138">
        <ele>174.2</ele>
      </trkpt>
      <trkpt lat="45.76182634704167" lon="4.841213383381053">
        <ele>173.9</ele>
      </trkpt>
      <trkpt lat="45.760942671480095" lon="4.841115710294967">
        <ele>171.3</ele>
      </trkpt>
      <trkpt lat="45.7600589819224" lon="4.8410180372088805">
        <ele>173.5</ele>
      </trkpt>
      <trkpt lat="45.75917527836863" lon="4.840920364122796">
        <ele>175.4</ele>
      </trkpt>
      <trkpt lat="45.75829156081872" lon="4.84082269103671">
        <ele>170.9</ele>
      </trkpt>
      <trkpt lat="45.75747835716078" lon="4.8407328128814715">
        <ele>178.6</ele>
      </trkpt>
      <trkpt lat="45.75707413997592" lon="4.840668439865114">
        <ele>180.8</ele>
      </trkpt>
      <trkpt lat="45.756669919862915" lon="4.840604066848756">
        <ele>176.7</ele>
      </trkpt>
      <trkpt lat="45.7564940083438" lon="4.840469956398011">
        <ele>174.7</ele>
      </trkpt>
      <trkpt lat="45.75631809627012" lon="4.840335845947266">
        <ele>173.8</ele>
      </trkpt>
      <trkpt lat="45.756645685673185" lon="4.839155383965805">
        <ele>165.6</ele>
      </trkpt>
      <trkpt lat="45.75697327315308" lon="4.837974921984343">
        <ele>165</ele>
      </trkpt>
      <trkpt lat="45.75730085870988" lon="4.8367944600028805">
        <ele>165.7</ele>
      </trkpt>
      <trkpt lat="45.75762844234357" lon="4.835613998021419">
        <ele>179</ele>
      </trkpt>
      <trkpt lat="45.757682" lon="4.835421">
        <ele>179.4</ele>
      </trkpt>
      <trkpt lat="45.757698" lon="4.835429">
        <ele>180</ele>
      </trkpt>
      <trkpt lat="45.759002" lon="4.836047">
        <ele>178</ele>
      </trkpt>
      <trkpt lat="45.759046" lon="4.836047">
        <ele>178.3</ele>
      </trkpt>
      <trkpt lat="45.75911" lon="4.836022">
        <ele>178.5</ele>
      </trkpt>
      <trkpt lat="45.759143" lon="4.835982">
        <ele>178.5</ele>
      </trkpt>
      <trkpt lat="45.759162" lon="4.835959">
        <ele>178.8</ele>
      </trkpt>
      <trkpt lat="45.759284" lon="4.836038">
        <ele>178.8</ele>
      </trkpt>
      <trkpt lat="45.75935" lon="4.836033">
        <ele>178.8</ele>
      </trkpt>
      <trkpt lat="45.759382" lon="4.836029">
        <ele>178.8</ele>
      </trkpt>
      <trkpt lat="45.759955" lon="4.835799">
        <ele>179</ele>
      </trkpt>
      <trkpt lat="45.760146" lon="4.8358">
        <ele>178.8</ele>
      </trkpt>
      <trkpt lat="45.760196" lon="4.835848">
        <ele>178.5</ele>
      </trkpt>
      <trkpt lat="45.760222" lon="4.835872">
        <ele>178.5</ele>
      </trkpt>
      <trkpt lat="45.760226" lon="4.835806">
        <ele>178.8</ele>
      </trkpt>
      <trkpt lat="45.760188" lon="4.83575">
        <ele>179</ele>
      </trkpt>
      <trkpt lat="45.760165" lon="4.835563">
        <ele>179.5</ele>
      </trkpt>
      <trkpt lat="45.75951" lon="4.835185">
        <ele>179.8</ele>
      </trkpt>
      <trkpt lat="45.759267" lon="4.83503">
        <ele>179.3</ele>
      </trkpt>
      <trkpt lat="45.758624" lon="4.83466">
        <ele>180</ele>
      </trkpt>
      <trkpt lat="45.758132" lon="4.834343">
        <ele>178.5</ele>
      </trkpt>
      <trkpt lat="45.758043" lon="4.834233">
        <ele>177.8</ele>
      </trkpt>
      <trkpt lat="45.758014" lon="4.834198">
        <ele>177.8</ele>
      </trkpt>
      <trkpt lat="45.758008" lon="4.83419">
        <ele>177.5</ele>
      </trkpt>
      <trkpt lat="45.757952" lon="4.834122">
        <ele>177.3</ele>
      </trkpt>
      <trkpt lat="45.75791" lon="4.834099">
        <ele>177.3</ele>
      </trkpt>
      <trkpt lat="45.75793" lon="4.834004">
        <ele>177</ele>
      </trkpt>
      <trkpt lat="45.75799" lon="4.833779">
        <ele>176.8</ele>
      </trkpt>
      <trkpt lat="45.758137" lon="4.83323">
        <ele>177.5</ele>
      </trkpt>
      <trkpt lat="45.758168" lon="4.833118">
        <ele>177.8</ele>
      </trkpt>
      <trkpt lat="45.758179" lon="4.833078">
        <ele>177.8</ele>
      </trkpt>
      <trkpt lat="45.758337" lon="4.832509">
        <ele>178</ele>
      </trkpt>
      <trkpt lat="45.758352" lon="4.832457">
        <ele>177.8</ele>
      </trkpt>
      <trkpt lat="45.758369" lon="4.832399">
        <ele>177.8</ele>
      </trkpt>
      <trkpt lat="45.758381" lon="4.832355">
        <ele>177.5</ele>
      </trkpt>
      <trkpt lat="45.758653" lon="4.831366">
        <ele>176</ele>
      </trkpt>
      <trkpt lat="45.758755" lon="4.830984">
        <ele>176</ele>
      </trkpt>
      <trkpt lat="45.75878" lon="4.83089">
        <ele>176</ele>
      </trkpt>
      <trkpt lat="45.758819" lon="4.830742">
        <ele>176.3</ele>
      </trkpt>
      <trkpt lat="45.758857" lon="4.830763">
        <ele>176.3</ele>
      </trkpt>
      <trkpt lat="45.758847" lon="4.830797">
        <ele>176.3</ele>
      </trkpt>
      <trkpt lat="45.758857" lon="4.830763">
        <ele>176.3</ele>
      </trkpt>
      <trkpt lat="45.758819" lon="4.830742">
        <ele>176.3</ele>
      </trkpt>
      <trkpt lat="45.758787" lon="4.830723">
        <ele>176.3</ele>
      </trkpt>
      <trkpt lat="45.758589" lon="4.830603">
        <ele>176</ele>
      </trkpt>
      <trkpt lat="45.757858" lon="4.830157">
        <ele>177</ele>
      </trkpt>
      <trkpt lat="45.757812" lon="4.83013">
        <ele>177</ele>
      </trkpt>
      <trkpt lat="45.757794" lon="4.83012">
        <ele>177</ele>
      </trkpt>
      <trkpt lat="45.757763" lon="4.830181">
        <ele>176.3</ele>
      </trkpt>
      <trkpt lat="45.757733" lon="4.830163">
        <ele>176.5</ele>
      </trkpt>
      <trkpt lat="45.757249" lon="4.829843">
        <ele>177.5</ele>
      </trkpt>
      <trkpt lat="45.757234" lon="4.82991">
        <ele>177.5</ele>
      </trkpt>
      <trkpt lat="45.757194" lon="4.829893">
        <ele>177.8</ele>
      </trkpt>
      <trkpt lat="45.757163" lon="4.829877">
        <ele>177.8</ele>
      </trkpt>
      <trkpt lat="45.757163" lon="4.829877">
        <ele>177.8</ele>
      </trkpt>
      <trkpt lat="45.757177" lon="4.829818">
        <ele>177.8</ele>
      </trkpt>
      <trkpt lat="45.757139" lon="4.829797">
        <ele>177.8</ele>
      </trkpt>
      <trkpt lat="45.757096" lon="4.82977">
        <ele>177.8</ele>
      </trkpt>
      <trkpt lat="45.757069" lon="4.829852">
        <ele>178</ele>
      </trkpt>
      <trkpt lat="45.75693" lon="4.830537">
        <ele>176.5</ele>
      </trkpt>
      <trkpt lat="45.756916" lon="4.830614">
        <ele>176.3</ele>
      </trkpt>
      <trkpt lat="45.75695" lon="4.83063">
        <ele>176</ele>
      </trkpt>
      <trkpt lat="45.756985" lon="4.830646">
        <ele>175.5</ele>
      </trkpt>
      <trkpt lat="45.756924" lon="4.830959">
        <ele>175</ele>
      </trkpt>
    </trkseg>
  </trk>
</gpx>
